{"type": "FeatureCollection", "features": [{"type": "Feature", "properties": {}, "geometry": {"type": "Polygon", "coordinates": [[[-180, -80], [180, -80], [180, 80], [-180, 80], [-180, -80]], [[78.674, 32.079], [78.665, 32.103], [78.614, 32.119], [78.607, 32.141], [78.592, 32.153], [78.606, 32.167], [78.613, 32.212], [78.557, 32.246], [78.5, 32.239], [78.457, 32.242], [78.482, 32.273], [78.485, 32.288], [78.478, 32.333], [78.486, 32.354], [78.512, 32.373], [78.516, 32.391], [78.537, 32.414], [78.521, 32.422], [78.496, 32.422], [78.484, 32.441], [78.456, 32.452], [78.466, 32.483], [78.45, 32.506], [78.427, 32.508], [78.401, 32.526], [78.428, 32.531], [78.437, 32.561], [78.473, 32.583], [78.5, 32.581], [78.536, 32.608], [78.572, 32.617], [78.589, 32.615], [78.621, 32.596], [78.64, 32.609], [78.663, 32.654], [78.724, 32.661], [78.77, 32.686], [78.763, 32.655], [78.78, 32.628], [78.793, 32.618], [78.795, 32.589], [78.777, 32.573], [78.777, 32.558], [78.791, 32.532], [78.808, 32.481], [78.828, 32.438], [78.859, 32.44], [78.876, 32.417], [78.904, 32.393], [78.962, 32.366], [78.98, 32.339], [78.994, 32.345], [79.015, 32.377], [79.061, 32.39], [79.116, 32.384], [79.126, 32.413], [79.145, 32.422], [79.148, 32.437], [79.132, 32.471], [79.148, 32.481], [79.196, 32.483], [79.242, 32.51], [79.251, 32.534], [79.278, 32.534], [79.296, 32.55], [79.321, 32.592], [79.34, 32.592], [79.395, 32.572], [79.4, 32.537], [79.425, 32.527], [79.449, 32.532], [79.47, 32.576], [79.516, 32.608], [79.568, 32.673], [79.579, 32.678], [79.627, 32.737], [79.604, 32.777], [79.574, 32.782], [79.502, 32.872], [79.49, 32.881], [79.464, 32.92], [79.416, 32.967], [79.384, 32.972], [79.341, 33.018], [79.383, 33.027], [79.394, 33.053], [79.379, 33.079], [79.382, 33.097], [79.406, 33.144], [79.431, 33.176], [79.447, 33.205], [79.457, 33.25], [79.448, 33.264], [79.37, 33.282], [79.316, 33.273], [79.235, 33.297], [79.209, 33.292], [79.127, 33.29], [79.098, 33.294], [79.062, 33.309], [79.018, 33.335], [78.99, 33.332], [78.969, 33.375], [78.954, 33.381], [78.951, 33.408], [78.934, 33.432], [78.932, 33.473], [78.942, 33.499], [78.941, 33.526], [78.928, 33.559], [78.916, 33.574], [78.918, 33.622], [78.923, 33.633], [78.95, 33.62], [78.99, 33.611], [79.021, 33.623], [79.066, 33.626], [79.108, 33.616], [79.091, 33.657], [79.093, 33.679], [79.054, 33.678], [79.029, 33.691], [79.021, 33.705], [79.043, 33.749], [79.068, 33.763], [79.021, 33.775], [79.001, 33.803], [78.963, 33.87], [78.95, 33.916], [78.937, 33.927], [78.922, 33.957], [78.906, 33.971], [78.941, 34.023], [79.023, 34.05], [79.045, 34.035], [79.085, 34.021], [79.113, 34.019], [79.144, 34.035], [79.152, 34.068], [79.179, 34.072], [79.199, 34.051], [79.248, 34.051], [79.275, 34.039], [79.306, 34.043], [79.356, 34.036], [79.399, 34.027], [79.421, 34.014], [79.438, 34.028], [79.415, 34.055], [79.433, 34.092], [79.462, 34.101], [79.495, 34.135], [79.49, 34.148], [79.495, 34.179], [79.512, 34.21], [79.538, 34.205], [79.565, 34.217], [79.585, 34.238], [79.593, 34.281], [79.56, 34.332], [79.563, 34.363], [79.554, 34.387], [79.56, 34.411], [79.529, 34.417], [79.528, 34.445], [79.509, 34.474], [79.544, 34.478], [79.581, 34.489], [79.594, 34.5], [79.609, 34.491], [79.653, 34.488], [79.662, 34.479], [79.734, 34.478], [79.794, 34.485], [79.813, 34.496], [79.811, 34.531], [79.759, 34.554], [79.771, 34.582], [79.793, 34.589], [79.776, 34.627], [79.821, 34.646], [79.825, 34.661], [79.861, 34.688], [79.901, 34.691], [79.945, 34.681], [80.045, 34.704], [80.071, 34.719], [80.073, 34.746], [80.067, 34.79], [80.073, 34.828], [80.084, 34.848], [80.107, 34.867], [80.123, 34.892], [80.171, 34.988], [80.184, 35.04], [80.186, 35.064], [80.178, 35.136], [80.184, 35.166], [80.215, 35.203], [80.229, 35.227], [80.23, 35.251], [80.24, 35.287], [80.271, 35.344], [80.284, 35.387], [80.281, 35.44], [80.298, 35.46], [80.329, 35.472], [80.312, 35.554], [80.292, 35.607], [80.275, 35.622], [80.238, 35.641], [80.125, 35.673], [80.104, 35.686], [80.089, 35.725], [80.059, 35.749], [80.039, 35.799], [80, 35.837], [79.956, 35.837], [79.911, 35.817], [79.871, 35.782], [79.797, 35.797], [79.759, 35.799], [79.725, 35.805], [79.712, 35.819], [79.666, 35.835], [79.56, 35.861], [79.519, 35.883], [79.422, 35.896], [79.404, 35.918], [79.387, 35.99], [79.289, 35.989], [79.242, 35.986], [79.216, 35.978], [79.19, 35.947], [79.189, 35.927], [79.198, 35.898], [79.181, 35.87], [79.146, 35.841], [79.118, 35.836], [79.064, 35.846], [79.028, 35.847], [79.004, 35.856], [78.961, 35.892], [78.94, 35.879], [78.864, 35.862], [78.805, 35.855], [78.769, 35.869], [78.719, 35.868], [78.692, 35.856], [78.659, 35.853], [78.631, 35.824], [78.611, 35.813], [78.581, 35.807], [78.522, 35.763], [78.51, 35.772], [78.465, 35.774], [78.424, 35.785], [78.413, 35.765], [78.387, 35.735], [78.339, 35.72], [78.274, 35.721], [78.268, 35.71], [78.273, 35.668], [78.256, 35.645], [78.231, 35.651], [78.208, 35.666], [78.187, 35.623], [78.167, 35.613], [78.152, 35.578], [78.157, 35.551], [78.138, 35.538], [78.112, 35.551], [78.078, 35.549], [78.047, 35.585], [78.025, 35.587], [77.992, 35.581], [77.966, 35.603], [77.967, 35.57], [77.938, 35.532], [77.932, 35.515], [77.966, 35.495], [77.972, 35.458], [77.921, 35.494], [77.907, 35.469], [77.881, 35.485], [77.868, 35.479], [77.837, 35.502], [77.813, 35.512], [77.792, 35.497], [77.759, 35.502], [77.738, 35.523], [77.725, 35.514], [77.724, 35.475], [77.687, 35.477], [77.666, 35.472], [77.651, 35.487], [77.615, 35.469], [77.513, 35.488], [77.446, 35.461], [77.414, 35.472], [77.383, 35.476], [77.367, 35.493], [77.349, 35.493], [77.343, 35.512], [77.321, 35.533], [77.346, 35.546], [77.385, 35.549], [77.41, 35.528], [77.436, 35.517], [77.447, 35.524], [77.473, 35.52], [77.484, 35.536], [77.461, 35.547], [77.466, 35.573], [77.458, 35.593], [77.428, 35.61], [77.439, 35.64], [77.423, 35.661], [77.402, 35.662], [77.387, 35.689], [77.372, 35.695], [77.359, 35.717], [77.328, 35.718], [77.316, 35.698], [77.286, 35.71], [77.225, 35.714], [77.222, 35.728], [77.181, 35.73], [77.164, 35.74], [77.165, 35.766], [77.144, 35.769], [77.12, 35.796], [77.081, 35.797], [77.059, 35.784], [77.021, 35.774], [76.969, 35.782], [76.936, 35.783], [76.896, 35.799], [76.859, 35.83], [76.813, 35.844], [76.795, 35.862], [76.786, 35.889], [76.724, 35.953], [76.755, 35.982], [76.771, 36.009], [76.809, 36.02], [76.803, 36.047], [76.727, 36.078], [76.698, 36.135], [76.666, 36.157], [76.638, 36.184], [76.602, 36.165], [76.564, 36.172], [76.546, 36.192], [76.483, 36.211], [76.458, 36.24], [76.434, 36.25], [76.451, 36.269], [76.433, 36.307], [76.405, 36.319], [76.353, 36.359], [76.329, 36.362], [76.293, 36.348], [76.256, 36.347], [76.233, 36.36], [76.2, 36.387], [76.174, 36.39], [76.126, 36.437], [76.078, 36.474], [76.027, 36.485], [75.998, 36.484], [75.924, 36.502], [75.892, 36.517], [75.85, 36.544], [75.81, 36.552], [75.75, 36.587], [75.676, 36.695], [75.626, 36.748], [75.617, 36.761], [75.515, 36.791], [75.475, 36.81], [75.461, 36.83], [75.449, 36.88], [75.423, 36.886], [75.41, 36.916], [75.428, 36.938], [75.422, 36.962], [75.402, 36.967], [75.377, 36.96], [75.356, 36.977], [75.346, 37.002], [75.346, 37.051], [75.334, 37.054], [75.28, 37.046], [75.266, 37.051], [75.227, 37.037], [75.203, 37.02], [75.174, 36.985], [75.137, 36.957], [75.088, 36.942], [75.064, 36.959], [75.02, 36.976], [74.942, 36.934], [74.929, 36.908], [74.912, 36.912], [74.889, 36.945], [74.847, 36.989], [74.835, 37.024], [74.801, 37.023], [74.78, 37.029], [74.751, 37.011], [74.729, 37.025], [74.72, 37.062], [74.71, 37.077], [74.686, 37.074], [74.66, 37.057], [74.608, 37.05], [74.583, 37.043], [74.591, 37.028], [74.58, 36.948], [74.556, 36.953], [74.533, 36.986], [74.473, 36.99], [74.434, 37.009], [74.414, 36.987], [74.389, 36.971], [74.345, 36.957], [74.318, 36.939], [74.311, 36.92], [74.279, 36.913], [74.246, 36.896], [74.177, 36.914], [74.153, 36.898], [74.138, 36.872], [74.134, 36.847], [74.116, 36.837], [74.078, 36.84], [74.039, 36.825], [74.006, 36.835], [73.986, 36.831], [73.962, 36.843], [73.947, 36.864], [73.906, 36.899], [73.884, 36.912], [73.828, 36.908], [73.818, 36.891], [73.778, 36.899], [73.748, 36.911], [73.72, 36.905], [73.701, 36.915], [73.681, 36.901], [73.728, 36.889], [73.902, 36.859], [73.918, 36.845], [73.924, 36.827], [73.922, 36.793], [73.895, 36.775], [73.808, 36.795], [73.743, 36.79], [73.712, 36.764], [73.67, 36.766], [73.642, 36.789], [73.623, 36.793], [73.534, 36.798], [73.443, 36.808], [73.392, 36.805], [73.259, 36.768], [73.207, 36.764], [73.089, 36.762], [73.071, 36.753], [73.067, 36.73], [73.081, 36.659], [73.073, 36.627], [73.051, 36.597], [72.987, 36.573], [72.967, 36.548], [72.96, 36.519], [72.947, 36.511], [72.881, 36.508], [72.868, 36.497], [72.867, 36.431], [72.858, 36.421], [72.803, 36.41], [72.792, 36.399], [72.787, 36.376], [72.774, 36.356], [72.723, 36.347], [72.704, 36.339], [72.671, 36.302], [72.655, 36.293], [72.573, 36.291], [72.551, 36.282], [72.529, 36.259], [72.521, 36.234], [72.522, 36.192], [72.528, 36.144], [72.527, 36.08], [72.531, 36.069], [72.56, 36.055], [72.57, 36.032], [72.566, 36.019], [72.54, 35.992], [72.524, 35.965], [72.534, 35.933], [72.605, 35.892], [72.645, 35.879], [72.781, 35.877], [72.812, 35.905], [72.847, 35.91], [72.872, 35.904], [72.908, 35.881], [72.934, 35.882], [72.984, 35.898], [73.037, 35.899], [73.096, 35.906], [73.142, 35.887], [73.153, 35.868], [73.135, 35.813], [73.138, 35.795], [73.16, 35.752], [73.258, 35.677], [73.281, 35.667], [73.349, 35.654], [73.372, 35.641], [73.424, 35.596], [73.477, 35.577], [73.696, 35.565], [73.771, 35.551], [73.798, 35.529], [73.797, 35.495], [73.752, 35.464], [73.727, 35.439], [73.718, 35.419], [73.721, 35.345], [73.739, 35.313], [73.754, 35.264], [73.792, 35.257], [73.821, 35.276], [73.852, 35.273], [73.887, 35.251], [73.933, 35.25], [73.975, 35.226], [74.109, 35.173], [74.118, 35.145], [74.102, 35.121], [74.097, 35.085], [74.111, 35.063], [74.106, 35.047], [74.075, 35.031], [74.066, 34.994], [74.052, 34.966], [74.042, 34.921], [74.028, 34.906], [73.993, 34.884], [73.997, 34.862], [73.982, 34.848], [73.928, 34.847], [73.889, 34.838], [73.829, 34.809], [73.774, 34.816], [73.751, 34.809], [73.733, 34.787], [73.724, 34.756], [73.712, 34.741], [73.682, 34.723], [73.672, 34.707], [73.669, 34.657], [73.656, 34.606], [73.636, 34.599], [73.601, 34.619], [73.578, 34.622], [73.522, 34.613], [73.466, 34.599], [73.447, 34.581], [73.403, 34.444], [73.409, 34.408], [73.43, 34.392], [73.423, 34.375], [73.425, 34.348], [73.436, 34.331], [73.485, 34.275], [73.496, 34.157], [73.501, 34.059], [73.511, 34.003], [73.556, 33.908], [73.557, 33.88], [73.551, 33.844], [73.555, 33.79], [73.556, 33.699], [73.567, 33.662], [73.584, 33.625], [73.59, 33.599], [73.59, 33.559], [73.574, 33.484], [73.558, 33.439], [73.558, 33.394], [73.6, 33.167], [73.611, 33.136], [73.633, 33.107], [73.657, 33.093], [73.753, 33.06], [73.789, 33.042], [73.808, 33.023], [73.817, 32.99], [73.846, 32.984], [73.854, 33.007], [73.88, 33.019], [73.912, 33.003], [73.987, 32.989], [74.01, 32.976], [74.032, 32.942], [74.048, 32.933], [74.078, 32.937], [74.124, 32.896], [74.139, 32.889], [74.185, 32.89], [74.23, 32.875], [74.288, 32.846], [74.33, 32.81], [74.341, 32.786], [74.372, 32.765], [74.398, 32.769], [74.426, 32.783], [74.461, 32.788], [74.484, 32.77], [74.51, 32.764], [74.515, 32.749], [74.535, 32.746], [74.568, 32.76], [74.595, 32.756], [74.631, 32.767], [74.64, 32.782], [74.633, 32.809], [74.659, 32.83], [74.705, 32.842], [74.705, 32.817], [74.685, 32.788], [74.674, 32.757], [74.66, 32.734], [74.654, 32.696], [74.666, 32.676], [74.696, 32.666], [74.689, 32.652], [74.657, 32.631], [74.642, 32.6], [74.655, 32.581], [74.652, 32.563], [74.662, 32.546], [74.69, 32.534], [74.683, 32.513], [74.701, 32.491], [74.729, 32.481], [74.813, 32.48], [74.82, 32.5], [74.841, 32.493], [74.879, 32.493], [74.88, 32.478], [74.918, 32.464], [74.93, 32.472], [74.952, 32.447], [74.963, 32.458], [74.98, 32.452], [75.006, 32.458], [75.024, 32.494], [75.092, 32.469], [75.113, 32.458], [75.134, 32.428], [75.152, 32.419], [75.192, 32.426], [75.194, 32.401], [75.224, 32.395], [75.258, 32.372], [75.29, 32.37], [75.299, 32.347], [75.326, 32.335], [75.338, 32.321], [75.321, 32.297], [75.372, 32.28], [75.366, 32.22], [75.328, 32.216], [75.31, 32.197], [75.316, 32.181], [75.299, 32.153], [75.277, 32.137], [75.28, 32.118], [75.261, 32.101], [75.236, 32.102], [75.21, 32.114], [75.197, 32.086], [75.166, 32.072], [75.158, 32.082], [75.123, 32.077], [75.084, 32.06], [75.069, 32.064], [75.041, 32.043], [75.019, 32.047], [75.012, 32.036], [74.985, 32.042], [74.974, 32.053], [74.926, 32.066], [74.913, 32.054], [74.879, 32.054], [74.876, 32.034], [74.848, 32.021], [74.831, 32.003], [74.831, 31.981], [74.822, 31.964], [74.782, 31.956], [74.743, 31.94], [74.722, 31.943], [74.719, 31.924], [74.677, 31.926], [74.636, 31.884], [74.62, 31.887], [74.571, 31.837], [74.573, 31.816], [74.558, 31.805], [74.551, 31.779], [74.562, 31.763], [74.547, 31.752], [74.504, 31.74], [74.502, 31.696], [74.535, 31.678], [74.556, 31.608], [74.575, 31.604], [74.585, 31.581], [74.616, 31.557], [74.613, 31.527], [74.584, 31.521], [74.587, 31.504], [74.614, 31.495], [74.637, 31.485], [74.651, 31.452], [74.64, 31.441], [74.644, 31.416], [74.609, 31.424], [74.597, 31.416], [74.584, 31.379], [74.554, 31.367], [74.544, 31.335], [74.529, 31.309], [74.538, 31.301], [74.521, 31.272], [74.533, 31.25], [74.517, 31.227], [74.526, 31.212], [74.512, 31.183], [74.51, 31.132], [74.549, 31.122], [74.551, 31.089], [74.561, 31.083], [74.601, 31.088], [74.61, 31.112], [74.603, 31.134], [74.631, 31.133], [74.641, 31.12], [74.689, 31.128], [74.698, 31.104], [74.696, 31.074], [74.671, 31.054], [74.597, 31.038], [74.574, 31.057], [74.547, 31.032], [74.54, 31.009], [74.546, 30.993], [74.516, 30.979], [74.509, 30.967], [74.48, 30.974], [74.457, 30.964], [74.428, 30.942], [74.423, 30.908], [74.397, 30.909], [74.383, 30.895], [74.366, 30.893], [74.361, 30.874], [74.37, 30.857], [74.325, 30.85], [74.32, 30.827], [74.301, 30.804], [74.302, 30.779], [74.261, 30.77], [74.275, 30.737], [74.261, 30.723], [74.233, 30.724], [74.219, 30.694], [74.194, 30.665], [74.163, 30.648], [74.149, 30.631], [74.129, 30.632], [74.118, 30.608], [74.095, 30.601], [74.102, 30.579], [74.074, 30.555], [74.091, 30.549], [74.072, 30.523], [74.057, 30.519], [74.05, 30.537], [73.993, 30.514], [73.964, 30.485], [73.964, 30.456], [73.928, 30.466], [73.938, 30.436], [73.968, 30.44], [73.965, 30.425], [73.914, 30.383], [73.883, 30.365], [73.931, 30.32], [73.962, 30.264], [73.973, 30.198], [73.946, 30.178], [73.827, 30.092], [73.807, 30.068], [73.597, 30.019], [73.397, 29.946], [73.335, 29.74], [73.282, 29.572], [73.084, 29.236], [73.004, 29.153], [72.946, 29.028], [72.732, 28.948], [72.649, 28.903], [72.48, 28.812], [72.404, 28.783], [72.355, 28.734], [72.299, 28.67], [72.279, 28.604], [72.233, 28.474], [72.206, 28.395], [72.132, 28.313], [72.004, 28.219], [71.928, 28.122], [71.898, 27.961], [71.883, 27.958], [71.667, 27.878], [71.532, 27.876], [71.478, 27.873], [71.384, 27.873], [71.206, 27.835], [71.151, 27.814], [71.068, 27.777], [70.907, 27.71], [70.872, 27.706], [70.76, 27.721], [70.74, 27.742], [70.732, 27.761], [70.684, 27.828], [70.679, 27.872], [70.677, 27.922], [70.6, 27.992], [70.589, 28.011], [70.554, 28.026], [70.507, 28.037], [70.44, 28.02], [70.372, 28.012], [70.297, 27.937], [70.227, 27.901], [70.197, 27.866], [70.145, 27.82], [70.123, 27.788], [70.072, 27.662], [70.025, 27.562], [69.974, 27.53], [69.934, 27.498], [69.915, 27.473], [69.894, 27.436], [69.862, 27.402], [69.784, 27.344], [69.76, 27.321], [69.705, 27.286], [69.643, 27.223], [69.587, 27.183], [69.514, 27.01], [69.499, 26.872], [69.485, 26.805], [69.51, 26.744], [69.726, 26.652], [69.787, 26.602], [69.824, 26.589], [69.895, 26.579], [69.934, 26.582], [70.056, 26.601], [70.118, 26.587], [70.174, 26.552], [70.185, 26.481], [70.177, 26.424], [70.186, 26.374], [70.164, 26.295], [70.175, 26.251], [70.169, 26.221], [70.142, 26.159], [70.084, 26.083], [70.099, 25.94], [70.174, 25.828], [70.196, 25.816], [70.222, 25.793], [70.251, 25.756], [70.269, 25.714], [70.359, 25.68], [70.387, 25.674], [70.456, 25.683], [70.528, 25.684], [70.588, 25.709], [70.608, 25.715], [70.647, 25.713], [70.66, 25.703], [70.674, 25.676], [70.668, 25.531], [70.679, 25.523], [70.672, 25.421], [70.665, 25.397], [70.737, 25.332], [70.752, 25.278], [70.889, 25.148], [70.902, 25.075], [70.918, 25.007], [70.946, 24.923], [70.989, 24.87], [71.034, 24.788], [71.066, 24.717], [71.097, 24.689], [71.075, 24.662], [71.05, 24.647], [71.025, 24.639], [70.997, 24.613], [70.988, 24.596], [70.995, 24.564], [70.993, 24.545], [71.008, 24.528], [71.001, 24.483], [71, 24.448], [71.037, 24.434], [71.067, 24.438], [71.104, 24.437], [71.127, 24.421], [71.124, 24.405], [71.108, 24.395], [71.085, 24.393], [71.059, 24.361], [71.042, 24.35], [71.003, 24.35], [70.985, 24.363], [70.948, 24.347], [70.917, 24.32], [70.876, 24.295], [70.882, 24.275], [70.909, 24.259], [70.877, 24.244], [70.852, 24.243], [70.836, 24.229], [70.806, 24.219], [70.716, 24.214], [70.644, 24.223], [70.57, 24.251], [70.583, 24.278], [70.579, 24.306], [70.56, 24.354], [70.58, 24.367], [70.594, 24.397], [70.593, 24.409], [70.573, 24.419], [70.471, 24.387], [70.441, 24.382], [70.405, 24.37], [70.367, 24.349], [70.353, 24.352], [70.302, 24.345], [70.246, 24.324], [70.214, 24.32], [70.168, 24.302], [70.14, 24.301], [70.11, 24.291], [70.068, 24.198], [70.04, 24.175], [70.025, 24.17], [69.731, 24.17], [69.594, 24.291], [69.559, 24.279], [69.512, 24.268], [69.485, 24.267], [69.446, 24.279], [69.405, 24.27], [69.367, 24.269], [69.313, 24.28], [69.194, 24.235], [69.096, 24.272], [69.036, 24.239], [69.014, 24.223], [68.983, 24.227], [68.966, 24.271], [68.945, 24.3], [68.914, 24.283], [68.894, 24.263], [68.889, 24.237], [68.874, 24.212], [68.857, 24.214], [68.845, 24.248], [68.843, 24.279], [68.829, 24.314], [68.808, 24.313], [68.773, 24.299], [68.766, 24.288], [68.769, 24.263], [68.765, 24.16], [68.759, 24.087], [68.753, 23.971], [68.648, 23.971], [68.597, 23.963], [68.595, 23.925], [68.559, 23.924], [68.54, 23.942], [68.505, 23.963], [68.5, 23.988], [68.485, 24], [68.446, 23.985], [68.432, 23.996], [68.399, 23.969], [68.387, 23.969], [68.375, 23.991], [68.35, 23.978], [68.341, 23.964], [68.337, 23.934], [68.322, 23.923], [68.283, 23.931], [68.256, 23.903], [68.21, 23.877], [68.203, 23.854], [68.203, 23.781], [68.179, 23.741], [68.194, 23.731], [68.221, 23.7], [68.239, 23.686], [68.258, 23.682], [68.277, 23.69], [68.299, 23.72], [68.302, 23.685], [68.273, 23.656], [68.219, 23.652], [68.193, 23.629], [68.199, 23.595], [68.213, 23.586], [68.249, 23.58], [68.271, 23.571], [68.305, 23.571], [68.321, 23.58], [68.366, 23.622], [68.398, 23.677], [68.414, 23.713], [68.436, 23.728], [68.489, 23.723], [68.504, 23.73], [68.524, 23.755], [68.543, 23.766], [68.567, 23.8], [68.569, 23.818], [68.589, 23.842], [68.63, 23.839], [68.678, 23.866], [68.722, 23.867], [68.76, 23.884], [68.786, 23.883], [68.764, 23.857], [68.771, 23.837], [68.753, 23.833], [68.72, 23.839], [68.702, 23.833], [68.703, 23.818], [68.675, 23.807], [68.651, 23.805], [68.628, 23.743], [68.608, 23.741], [68.591, 23.729], [68.583, 23.709], [68.552, 23.723], [68.543, 23.697], [68.521, 23.695], [68.533, 23.669], [68.525, 23.642], [68.506, 23.622], [68.486, 23.584], [68.49, 23.57], [68.487, 23.533], [68.502, 23.508], [68.523, 23.449], [68.543, 23.421], [68.561, 23.413], [68.564, 23.397], [68.548, 23.389], [68.587, 23.345], [68.607, 23.333], [68.634, 23.335], [68.652, 23.305], [68.629, 23.296], [68.636, 23.273], [68.669, 23.273], [68.636, 23.243], [68.595, 23.242], [68.58, 23.235], [68.588, 23.219], [68.663, 23.145], [68.683, 23.138], [68.741, 23.098], [68.763, 23.078], [68.823, 23.051], [68.896, 23.008], [68.926, 22.994], [68.962, 22.97], [69.023, 22.943], [69.102, 22.897], [69.131, 22.874], [69.158, 22.863], [69.197, 22.839], [69.272, 22.826], [69.315, 22.833], [69.352, 22.819], [69.381, 22.817], [69.412, 22.806], [69.457, 22.777], [69.484, 22.773], [69.52, 22.789], [69.548, 22.787], [69.56, 22.776], [69.55, 22.753], [69.564, 22.749], [69.573, 22.769], [69.604, 22.757], [69.663, 22.75], [69.682, 22.74], [69.715, 22.735], [69.714, 22.751], [69.732, 22.774], [69.749, 22.812], [69.78, 22.823], [69.803, 22.841], [69.852, 22.864], [69.867, 22.867], [69.909, 22.863], [69.922, 22.867], [69.957, 22.893], [70.002, 22.905], [70.038, 22.899], [70.087, 22.91], [70.106, 22.91], [70.152, 22.942], [70.179, 22.951], [70.203, 22.948], [70.22, 22.956], [70.235, 22.984], [70.271, 22.957], [70.282, 22.945], [70.307, 22.949], [70.333, 22.93], [70.357, 22.932], [70.385, 22.945], [70.394, 22.968], [70.392, 23.002], [70.401, 23.029], [70.423, 23.052], [70.445, 23.065], [70.495, 23.079], [70.49, 23.052], [70.472, 23.012], [70.46, 22.997], [70.433, 22.979], [70.433, 22.96], [70.424, 22.932], [70.409, 22.917], [70.381, 22.906], [70.342, 22.85], [70.328, 22.817], [70.304, 22.781], [70.287, 22.745], [70.277, 22.736], [70.246, 22.724], [70.24, 22.698], [70.245, 22.672], [70.192, 22.597], [70.191, 22.582], [70.168, 22.553], [70.084, 22.544], [70.062, 22.547], [70.036, 22.558], [70.009, 22.554], [69.995, 22.543], [69.967, 22.545], [69.944, 22.532], [69.945, 22.516], [69.928, 22.509], [69.901, 22.468], [69.879, 22.449], [69.858, 22.447], [69.842, 22.456], [69.799, 22.394], [69.783, 22.405], [69.766, 22.429], [69.746, 22.43], [69.742, 22.454], [69.731, 22.471], [69.714, 22.47], [69.696, 22.445], [69.699, 22.421], [69.7, 22.397], [69.668, 22.391], [69.658, 22.361], [69.638, 22.358], [69.62, 22.367], [69.618, 22.347], [69.589, 22.353], [69.576, 22.368], [69.563, 22.357], [69.554, 22.398], [69.522, 22.426], [69.517, 22.403], [69.526, 22.389], [69.518, 22.374], [69.49, 22.353], [69.488, 22.337], [69.445, 22.331], [69.418, 22.316], [69.368, 22.316], [69.342, 22.326], [69.339, 22.309], [69.32, 22.291], [69.3, 22.287], [69.281, 22.27], [69.254, 22.267], [69.239, 22.259], [69.217, 22.259], [69.201, 22.268], [69.169, 22.295], [69.157, 22.315], [69.176, 22.347], [69.172, 22.36], [69.201, 22.402], [69.196, 22.422], [69.128, 22.396], [69.111, 22.411], [69.096, 22.398], [69.074, 22.392], [69.046, 22.428], [69.054, 22.442], [69.075, 22.453], [69.079, 22.479], [69.011, 22.442], [68.977, 22.402], [68.958, 22.365], [68.956, 22.335], [68.943, 22.332], [68.937, 22.313], [68.942, 22.292], [68.958, 22.259], [68.953, 22.249], [69, 22.192], [69.057, 22.128], [69.092, 22.096], [69.11, 22.072], [69.187, 21.989], [69.282, 21.897], [69.353, 21.839], [69.375, 21.828], [69.397, 21.801], [69.435, 21.766], [69.473, 21.739], [69.532, 21.682], [69.589, 21.636], [69.603, 21.636], [69.67, 21.569], [69.707, 21.537], [69.776, 21.461], [69.983, 21.227], [70.055, 21.149], [70.1, 21.105], [70.134, 21.08], [70.162, 21.053], [70.23, 21], [70.257, 20.975], [70.358, 20.905], [70.395, 20.893], [70.425, 20.865], [70.468, 20.839], [70.532, 20.811], [70.55, 20.806], [70.587, 20.782], [70.635, 20.769], [70.66, 20.758], [70.672, 20.761], [70.719, 20.732], [70.749, 20.72], [70.761, 20.722], [70.822, 20.694], [70.841, 20.706], [70.871, 20.708], [70.899, 20.7], [70.928, 20.712], [70.954, 20.704], [70.994, 20.711], [70.994, 20.731], [71.008, 20.738], [71.051, 20.732], [71.078, 20.737], [71.089, 20.757], [71.148, 20.758], [71.165, 20.782], [71.201, 20.789], [71.209, 20.801], [71.284, 20.828], [71.322, 20.847], [71.375, 20.857], [71.381, 20.875], [71.399, 20.866], [71.439, 20.869], [71.463, 20.881], [71.484, 20.911], [71.52, 20.919], [71.504, 20.934], [71.519, 20.951], [71.538, 20.946], [71.58, 20.959], [71.626, 20.969], [71.634, 20.987], [71.654, 20.997], [71.68, 21.001], [71.713, 21.019], [71.76, 21.022], [71.796, 21.049], [71.804, 21.062], [71.88, 21.09], [71.899, 21.11], [71.925, 21.112], [71.966, 21.124], [71.991, 21.139], [72.007, 21.133], [72.018, 21.15], [72.047, 21.159], [72.055, 21.168], [72.093, 21.19], [72.122, 21.201], [72.126, 21.271], [72.14, 21.321], [72.139, 21.345], [72.175, 21.391], [72.214, 21.425], [72.236, 21.456], [72.254, 21.501], [72.266, 21.539], [72.273, 21.578], [72.304, 21.619], [72.299, 21.65], [72.285, 21.667], [72.284, 21.681], [72.27, 21.71], [72.277, 21.72], [72.274, 21.748], [72.263, 21.794], [72.259, 21.854], [72.249, 21.892], [72.222, 21.946], [72.223, 21.975], [72.232, 22.008], [72.225, 22.039], [72.24, 22.06], [72.268, 22.076], [72.285, 22.08], [72.298, 22.106], [72.3, 22.129], [72.312, 22.169], [72.327, 22.168], [72.357, 22.206], [72.36, 22.226], [72.372, 22.257], [72.356, 22.268], [72.352, 22.291], [72.359, 22.322], [72.375, 22.342], [72.403, 22.346], [72.396, 22.365], [72.412, 22.352], [72.389, 22.316], [72.432, 22.303], [72.468, 22.259], [72.481, 22.263], [72.5, 22.254], [72.541, 22.281], [72.605, 22.279], [72.633, 22.287], [72.657, 22.281], [72.678, 22.253], [72.716, 22.259], [72.752, 22.233], [72.771, 22.238], [72.783, 22.235], [72.779, 22.207], [72.759, 22.173], [72.713, 22.186], [72.702, 22.185], [72.651, 22.216], [72.6, 22.216], [72.572, 22.192], [72.548, 22.154], [72.523, 22.071], [72.513, 22.045], [72.504, 21.964], [72.5, 21.905], [72.515, 21.841], [72.525, 21.832], [72.563, 21.881], [72.586, 21.894], [72.587, 21.92], [72.613, 21.923], [72.628, 21.908], [72.618, 21.87], [72.584, 21.827], [72.553, 21.808], [72.536, 21.784], [72.537, 21.739], [72.512, 21.711], [72.508, 21.675], [72.529, 21.655], [72.558, 21.657], [72.599, 21.681], [72.658, 21.679], [72.666, 21.684], [72.711, 21.679], [72.738, 21.691], [72.766, 21.667], [72.766, 21.656], [72.745, 21.643], [72.718, 21.64], [72.707, 21.649], [72.676, 21.629], [72.639, 21.619], [72.61, 21.582], [72.616, 21.551], [72.642, 21.526], [72.667, 21.514], [72.665, 21.486], [72.645, 21.437], [72.667, 21.428], [72.636, 21.388], [72.649, 21.367], [72.605, 21.322], [72.599, 21.307], [72.596, 21.262], [72.604, 21.236], [72.621, 21.23], [72.611, 21.179], [72.611, 21.147], [72.618, 21.14], [72.614, 21.09], [72.648, 21.062], [72.66, 21.066], [72.658, 21.091], [72.685, 21.087], [72.719, 21.069], [72.724, 21.059], [72.723, 21.03], [72.752, 20.947], [72.771, 20.914], [72.789, 20.9], [72.825, 20.814], [72.821, 20.803], [72.828, 20.766], [72.843, 20.754], [72.852, 20.732], [72.861, 20.691], [72.895, 20.598], [72.897, 20.579], [72.887, 20.559], [72.885, 20.51], [72.852, 20.465], [72.83, 20.445], [72.828, 20.4], [72.821, 20.368], [72.809, 20.353], [72.789, 20.351], [72.778, 20.338], [72.774, 20.306], [72.755, 20.293], [72.753, 20.263], [72.74, 20.244], [72.745, 20.213], [72.728, 20.13], [72.702, 20.068], [72.714, 20.044], [72.72, 20.004], [72.72, 19.983], [72.682, 19.958], [72.661, 19.937], [72.675, 19.918], [72.681, 19.887], [72.678, 19.864], [72.653, 19.851], [72.656, 19.826], [72.678, 19.812], [72.689, 19.79], [72.685, 19.747], [72.709, 19.707], [72.704, 19.681], [72.714, 19.641], [72.727, 19.618], [72.716, 19.596], [72.714, 19.572], [72.726, 19.537], [72.744, 19.511], [72.744, 19.458], [72.76, 19.417], [72.758, 19.375], [72.775, 19.351], [72.797, 19.331], [72.834, 19.315], [72.815, 19.303], [72.793, 19.31], [72.785, 19.303], [72.785, 19.263], [72.776, 19.224], [72.797, 19.198], [72.794, 19.172], [72.781, 19.165], [72.794, 19.141], [72.818, 19.123], [72.827, 19.093], [72.824, 19.056], [72.817, 19.039], [72.812, 18.99], [72.792, 18.949], [72.804, 18.902], [72.814, 18.894], [72.844, 18.935], [72.865, 19.001], [72.884, 19.002], [72.911, 18.991], [72.949, 19.022], [72.974, 19.06], [72.994, 19.06], [73.007, 19.03], [73.002, 19.004], [73.031, 18.999], [73.017, 18.98], [72.977, 18.963], [72.954, 18.971], [72.945, 18.953], [72.957, 18.91], [72.927, 18.912], [72.908, 18.9], [72.908, 18.887], [72.923, 18.865], [72.923, 18.855], [72.95, 18.847], [72.976, 18.861], [72.983, 18.829], [72.98, 18.809], [72.961, 18.798], [72.938, 18.828], [72.922, 18.797], [72.906, 18.794], [72.869, 18.805], [72.864, 18.79], [72.864, 18.721], [72.856, 18.697], [72.863, 18.66], [72.881, 18.638], [72.931, 18.537], [72.91, 18.531], [72.911, 18.504], [72.901, 18.489], [72.895, 18.463], [72.906, 18.436], [72.908, 18.399], [72.922, 18.392], [72.926, 18.373], [72.911, 18.366], [72.92, 18.346], [72.936, 18.348], [72.949, 18.338], [72.969, 18.308], [72.981, 18.3], [72.994, 18.273], [72.974, 18.262], [72.965, 18.279], [72.938, 18.283], [72.935, 18.272], [72.942, 18.235], [72.98, 18.197], [72.99, 18.159], [72.982, 18.137], [72.97, 18.132], [72.992, 18.098], [73.015, 18.032], [73.005, 18.019], [73.021, 17.994], [73.04, 17.986], [73.067, 17.987], [73.04, 17.978], [73.03, 17.968], [73.032, 17.941], [73.05, 17.93], [73.051, 17.906], [73.072, 17.889], [73.101, 17.804], [73.123, 17.752], [73.134, 17.708], [73.117, 17.698], [73.119, 17.673], [73.134, 17.648], [73.128, 17.637], [73.137, 17.615], [73.165, 17.589], [73.163, 17.57], [73.145, 17.571], [73.138, 17.556], [73.156, 17.529], [73.179, 17.509], [73.193, 17.467], [73.185, 17.454], [73.187, 17.414], [73.168, 17.404], [73.178, 17.387], [73.207, 17.384], [73.222, 17.354], [73.23, 17.319], [73.223, 17.302], [73.19, 17.299], [73.22, 17.269], [73.243, 17.225], [73.243, 17.199], [73.253, 17.188], [73.272, 17.119], [73.28, 17.111], [73.288, 17.077], [73.286, 17.052], [73.277, 17.037], [73.257, 17.049], [73.258, 17.02], [73.275, 17.024], [73.283, 17.011], [73.279, 16.993], [73.293, 16.988], [73.293, 16.966], [73.281, 16.898], [73.292, 16.87], [73.296, 16.816], [73.316, 16.802], [73.305, 16.766], [73.311, 16.715], [73.326, 16.69], [73.332, 16.641], [73.351, 16.623], [73.344, 16.605], [73.318, 16.601], [73.324, 16.582], [73.341, 16.58], [73.351, 16.535], [73.327, 16.558], [73.311, 16.542], [73.332, 16.49], [73.357, 16.439], [73.366, 16.398], [73.388, 16.394], [73.368, 16.364], [73.386, 16.358], [73.406, 16.294], [73.428, 16.21], [73.44, 16.188], [73.457, 16.122], [73.466, 16.072], [73.457, 16.057], [73.482, 16.038], [73.49, 16.011], [73.489, 15.988], [73.501, 15.969], [73.511, 15.938], [73.521, 15.94], [73.589, 15.908], [73.611, 15.866], [73.626, 15.852], [73.649, 15.804], [73.661, 15.77], [73.653, 15.744], [73.674, 15.728], [73.688, 15.724], [73.723, 15.63], [73.745, 15.627], [73.732, 15.608], [73.742, 15.571], [73.753, 15.551], [73.769, 15.491], [73.79, 15.5], [73.813, 15.495], [73.798, 15.46], [73.838, 15.451], [73.86, 15.442], [73.862, 15.429], [73.886, 15.432], [73.905, 15.404], [73.859, 15.398], [73.84, 15.41], [73.827, 15.403], [73.808, 15.406], [73.794, 15.418], [73.783, 15.411], [73.807, 15.378], [73.832, 15.371], [73.842, 15.361], [73.873, 15.37], [73.892, 15.336], [73.92, 15.253], [73.944, 15.16], [73.941, 15.121], [73.922, 15.108], [73.932, 15.079], [73.949, 15.076], [73.981, 15.053], [73.989, 15.021], [74.025, 15.009], [74.034, 14.996], [74.05, 14.958], [74.043, 14.919], [74.092, 14.9], [74.099, 14.892], [74.112, 14.847], [74.125, 14.84], [74.125, 14.808], [74.095, 14.8], [74.128, 14.781], [74.142, 14.779], [74.162, 14.753], [74.174, 14.752], [74.206, 14.729], [74.23, 14.746], [74.25, 14.738], [74.263, 14.719], [74.282, 14.675], [74.279, 14.658], [74.285, 14.64], [74.281, 14.61], [74.291, 14.597], [74.312, 14.55], [74.318, 14.519], [74.356, 14.522], [74.355, 14.509], [74.377, 14.458], [74.384, 14.424], [74.393, 14.418], [74.405, 14.374], [74.413, 14.317], [74.453, 14.2], [74.469, 14.189], [74.485, 14.112], [74.5, 14.046], [74.501, 14.025], [74.515, 13.988], [74.55, 13.951], [74.571, 13.945], [74.583, 13.926], [74.595, 13.889], [74.608, 13.864], [74.629, 13.78], [74.645, 13.681], [74.661, 13.656], [74.68, 13.559], [74.697, 13.407], [74.696, 13.348], [74.715, 13.32], [74.736, 13.224], [74.76, 13.139], [74.775, 13.076], [74.799, 12.966], [74.806, 12.921], [74.823, 12.851], [74.831, 12.839], [74.846, 12.798], [74.868, 12.75], [74.933, 12.604], [74.982, 12.484], [75.015, 12.417], [75.031, 12.392], [75.041, 12.387], [75.073, 12.318], [75.165, 12.089], [75.204, 12.005], [75.227, 12.023], [75.243, 12.014], [75.278, 11.971], [75.324, 11.905], [75.367, 11.851], [75.384, 11.857], [75.436, 11.805], [75.461, 11.766], [75.473, 11.764], [75.499, 11.733], [75.507, 11.733], [75.53, 11.702], [75.537, 11.693], [75.565, 11.633], [75.618, 11.488], [75.634, 11.462], [75.645, 11.468], [75.68, 11.451], [75.716, 11.392], [75.746, 11.32], [75.779, 11.227], [75.8, 11.171], [75.826, 11.123], [75.843, 11.075], [75.885, 10.909], [75.911, 10.786], [75.919, 10.774], [75.957, 10.685], [75.993, 10.601], [76.033, 10.516], [76.066, 10.456], [76.088, 10.405], [76.122, 10.316], [76.139, 10.255], [76.163, 10.179], [76.182, 10.13], [76.201, 10.056], [76.213, 10.022], [76.226, 9.972], [76.237, 9.959], [76.261, 9.882], [76.277, 9.79], [76.286, 9.728], [76.295, 9.623], [76.315, 9.504], [76.328, 9.449], [76.352, 9.378], [76.468, 9.126], [76.495, 9.067], [76.519, 9.009], [76.526, 8.979], [76.547, 8.903], [76.566, 8.88], [76.583, 8.88], [76.619, 8.851], [76.655, 8.794], [76.668, 8.781], [76.7, 8.735], [76.829, 8.574], [76.855, 8.545], [76.883, 8.507], [76.959, 8.422], [76.97, 8.403], [76.969, 8.39], [76.997, 8.371], [77.017, 8.351], [77.096, 8.291], [77.171, 8.238], [77.183, 8.218], [77.222, 8.197], [77.238, 8.174], [77.277, 8.158], [77.298, 8.143], [77.305, 8.126], [77.359, 8.121], [77.387, 8.11], [77.449, 8.094], [77.551, 8.078], [77.56, 8.095], [77.561, 8.121], [77.592, 8.143], [77.651, 8.159], [77.658, 8.157], [77.714, 8.164], [77.738, 8.173], [77.779, 8.198], [77.785, 8.223], [77.802, 8.24], [77.886, 8.271], [77.899, 8.284], [77.926, 8.296], [77.978, 8.336], [78.014, 8.353], [78.068, 8.373], [78.056, 8.383], [78.073, 8.429], [78.095, 8.458], [78.131, 8.497], [78.123, 8.526], [78.139, 8.588], [78.129, 8.612], [78.129, 8.655], [78.137, 8.692], [78.154, 8.709], [78.162, 8.733], [78.194, 8.754], [78.216, 8.744], [78.224, 8.754], [78.198, 8.765], [78.197, 8.789], [78.183, 8.791], [78.179, 8.767], [78.161, 8.779], [78.168, 8.875], [78.197, 8.942], [78.216, 8.967], [78.242, 8.986], [78.304, 9.027], [78.346, 9.058], [78.39, 9.096], [78.413, 9.112], [78.458, 9.126], [78.518, 9.135], [78.561, 9.135], [78.579, 9.13], [78.612, 9.149], [78.65, 9.159], [78.644, 9.178], [78.66, 9.192], [78.68, 9.196], [78.718, 9.19], [78.728, 9.209], [78.757, 9.216], [78.843, 9.248], [78.875, 9.256], [78.909, 9.249], [78.925, 9.265], [78.967, 9.272], [79.012, 9.27], [79.065, 9.261], [79.096, 9.26], [79.142, 9.272], [79.14, 9.292], [79.106, 9.289], [79.07, 9.299], [79.014, 9.333], [78.984, 9.359], [78.936, 9.411], [78.903, 9.469], [78.901, 9.492], [78.917, 9.493], [78.926, 9.529], [78.921, 9.543], [78.936, 9.6], [78.96, 9.628], [78.981, 9.69], [79.016, 9.731], [79.036, 9.761], [79.058, 9.773], [79.079, 9.8], [79.083, 9.816], [79.115, 9.848], [79.124, 9.86], [79.119, 9.875], [79.126, 9.892], [79.152, 9.918], [79.155, 9.932], [79.188, 9.964], [79.241, 10.023], [79.267, 10.038], [79.255, 10.061], [79.237, 10.074], [79.227, 10.1], [79.233, 10.129], [79.23, 10.142], [79.241, 10.154], [79.245, 10.185], [79.279, 10.211], [79.268, 10.228], [79.295, 10.26], [79.332, 10.284], [79.351, 10.286], [79.373, 10.297], [79.382, 10.313], [79.405, 10.317], [79.512, 10.309], [79.538, 10.322], [79.536, 10.336], [79.549, 10.348], [79.59, 10.339], [79.584, 10.327], [79.56, 10.332], [79.542, 10.302], [79.678, 10.281], [79.742, 10.273], [79.777, 10.273], [79.841, 10.276], [79.87, 10.283], [79.884, 10.306], [79.872, 10.371], [79.865, 10.441], [79.862, 10.519], [79.855, 10.634], [79.851, 10.757], [79.852, 10.825], [79.855, 10.985], [79.859, 11.118], [79.857, 11.165], [79.849, 11.236], [79.837, 11.302], [79.838, 11.353], [79.824, 11.382], [79.814, 11.419], [79.805, 11.447], [79.771, 11.515], [79.76, 11.549], [79.758, 11.579], [79.761, 11.621], [79.797, 11.789], [79.807, 11.831], [79.809, 11.837], [79.825, 11.881], [79.841, 11.956], [79.862, 12.017], [79.886, 12.065], [80.009, 12.256], [80.03, 12.295], [80.069, 12.349], [80.116, 12.404], [80.155, 12.462], [80.167, 12.529], [80.2, 12.616], [80.202, 12.633], [80.244, 12.746], [80.255, 12.782], [80.249, 12.808], [80.249, 12.85], [80.259, 12.934], [80.267, 12.973], [80.281, 13.038], [80.292, 13.073], [80.306, 13.096], [80.298, 13.101], [80.304, 13.142], [80.319, 13.191], [80.343, 13.256], [80.347, 13.314], [80.333, 13.39], [80.323, 13.456], [80.299, 13.478], [80.269, 13.563], [80.245, 13.611], [80.234, 13.656], [80.238, 13.717], [80.253, 13.781], [80.244, 13.819], [80.221, 13.875], [80.2, 13.914], [80.18, 13.967], [80.147, 14.043], [80.136, 14.09], [80.127, 14.173], [80.131, 14.219], [80.145, 14.293], [80.169, 14.351], [80.172, 14.379], [80.179, 14.501], [80.195, 14.577], [80.19, 14.599], [80.174, 14.608], [80.164, 14.628], [80.141, 14.712], [80.108, 14.752], [80.096, 14.789], [80.088, 14.831], [80.085, 14.879], [80.068, 14.93], [80.052, 15.02], [80.048, 15.082], [80.053, 15.112], [80.073, 15.169], [80.083, 15.185], [80.089, 15.223], [80.083, 15.258], [80.089, 15.287], [80.106, 15.323], [80.11, 15.345], [80.137, 15.388], [80.183, 15.442], [80.205, 15.472], [80.216, 15.511], [80.231, 15.548], [80.231, 15.576], [80.252, 15.634], [80.285, 15.689], [80.327, 15.734], [80.383, 15.777], [80.439, 15.809], [80.468, 15.823], [80.554, 15.856], [80.595, 15.868], [80.648, 15.878], [80.707, 15.881], [80.749, 15.873], [80.769, 15.863], [80.795, 15.813], [80.811, 15.765], [80.815, 15.723], [80.827, 15.712], [80.88, 15.713], [80.924, 15.722], [80.948, 15.721], [81.003, 15.753], [81.012, 15.77], [80.997, 15.798], [81, 15.834], [81.077, 15.918], [81.144, 15.975], [81.14, 16.003], [81.146, 16.029], [81.189, 16.103], [81.201, 16.136], [81.205, 16.17], [81.221, 16.213], [81.265, 16.277], [81.328, 16.317], [81.395, 16.342], [81.449, 16.351], [81.485, 16.354], [81.541, 16.349], [81.563, 16.345], [81.679, 16.332], [81.707, 16.316], [81.721, 16.309], [81.789, 16.34], [81.835, 16.366], [81.888, 16.384], [81.946, 16.396], [82.016, 16.431], [82.09, 16.471], [82.164, 16.505], [82.208, 16.529], [82.281, 16.554], [82.318, 16.574], [82.319, 16.587], [82.318, 16.605], [82.327, 16.663], [82.368, 16.717], [82.358, 16.734], [82.333, 16.727], [82.326, 16.711], [82.31, 16.701], [82.309, 16.743], [82.316, 16.733], [82.341, 16.737], [82.342, 16.757], [82.355, 16.807], [82.358, 16.852], [82.335, 16.856], [82.316, 16.849], [82.301, 16.865], [82.271, 16.874], [82.245, 16.909], [82.249, 16.936], [82.271, 16.942], [82.27, 16.96], [82.283, 16.971], [82.284, 16.995], [82.303, 17.039], [82.321, 17.061], [82.414, 17.149], [82.448, 17.178], [82.508, 17.225], [82.548, 17.252], [82.642, 17.309], [82.706, 17.344], [82.825, 17.399], [82.992, 17.473], [83.008, 17.498], [83.023, 17.508], [83.102, 17.543], [83.163, 17.561], [83.174, 17.574], [83.213, 17.591], [83.238, 17.613], [83.232, 17.623], [83.283, 17.661], [83.295, 17.675], [83.31, 17.705], [83.346, 17.725], [83.355, 17.757], [83.385, 17.777], [83.386, 17.785], [83.416, 17.823], [83.409, 17.841], [83.422, 17.86], [83.444, 17.873], [83.456, 17.9], [83.488, 17.925], [83.531, 17.95], [83.561, 17.988], [83.574, 18.014], [83.604, 18.037], [83.675, 18.083], [83.728, 18.117], [83.806, 18.154], [83.861, 18.174], [83.877, 18.188], [83.909, 18.203], [83.941, 18.211], [84.026, 18.255], [84.071, 18.276], [84.127, 18.314], [84.132, 18.343], [84.154, 18.376], [84.189, 18.413], [84.261, 18.479], [84.356, 18.557], [84.361, 18.583], [84.392, 18.617], [84.442, 18.662], [84.457, 18.698], [84.492, 18.74], [84.535, 18.775], [84.553, 18.793], [84.559, 18.819], [84.576, 18.839], [84.585, 18.862], [84.611, 18.897], [84.675, 18.957], [84.705, 18.996], [84.768, 19.081], [84.793, 19.121], [84.805, 19.149], [84.862, 19.216], [84.974, 19.311], [85.038, 19.352], [85.082, 19.376], [85.104, 19.414], [85.139, 19.443], [85.174, 19.468], [85.281, 19.544], [85.336, 19.579], [85.422, 19.624], [85.495, 19.655], [85.67, 19.74], [85.794, 19.785], [85.925, 19.823], [86.045, 19.847], [86.138, 19.872], [86.23, 19.903], [86.286, 19.931], [86.315, 19.941], [86.372, 19.956], [86.405, 19.97], [86.422, 19.988], [86.418, 20.021], [86.436, 20.056], [86.468, 20.089], [86.494, 20.122], [86.525, 20.172], [86.553, 20.194], [86.607, 20.232], [86.68, 20.259], [86.681, 20.27], [86.718, 20.288], [86.716, 20.301], [86.739, 20.309], [86.782, 20.338], [86.781, 20.381], [86.773, 20.391], [86.722, 20.397], [86.733, 20.411], [86.733, 20.456], [86.745, 20.47], [86.762, 20.508], [86.773, 20.506], [86.783, 20.531], [86.803, 20.55], [86.905, 20.619], [87.037, 20.702], [87.014, 20.695], [86.972, 20.7], [87.01, 20.721], [86.999, 20.764], [86.985, 20.773], [86.951, 20.764], [86.931, 20.767], [86.905, 20.763], [86.881, 20.774], [86.849, 20.77], [86.83, 20.756], [86.821, 20.732], [86.798, 20.739], [86.815, 20.752], [86.823, 20.77], [86.879, 20.8], [86.885, 20.795], [86.939, 20.79], [86.958, 20.785], [86.971, 20.821], [86.962, 20.858], [86.912, 20.954], [86.903, 20.989], [86.883, 21.024], [86.862, 21.052], [86.833, 21.109], [86.824, 21.139], [86.824, 21.175], [86.839, 21.223], [86.848, 21.24], [86.896, 21.318], [86.956, 21.384], [86.989, 21.416], [87.065, 21.469], [87.073, 21.471], [87.117, 21.509], [87.129, 21.51], [87.175, 21.535], [87.207, 21.545], [87.298, 21.552], [87.352, 21.548], [87.363, 21.556], [87.338, 21.573], [87.347, 21.581], [87.389, 21.57], [87.41, 21.56], [87.43, 21.579], [87.487, 21.611], [87.541, 21.629], [87.644, 21.652], [87.676, 21.653], [87.74, 21.677], [87.758, 21.701], [87.784, 21.693], [87.837, 21.718], [87.844, 21.737], [87.878, 21.769], [87.893, 21.794], [87.926, 21.8], [87.935, 21.812], [87.99, 21.865], [88.049, 21.912], [88.067, 21.91], [88.012, 21.746], [87.953, 21.656], [87.945, 21.563], [88.001, 21.525], [88.072, 21.507], [88.159, 21.52], [88.183, 21.541], [88.201, 21.574], [88.201, 21.619], [88.219, 21.617], [88.24, 21.588], [88.25, 21.562], [88.279, 21.557], [88.296, 21.564], [88.318, 21.604], [88.346, 21.631], [88.35, 21.651], [88.344, 21.666], [88.355, 21.686], [88.38, 21.683], [88.387, 21.651], [88.385, 21.633], [88.394, 21.621], [88.449, 21.625], [88.465, 21.634], [88.492, 21.636], [88.522, 21.631], [88.511, 21.603], [88.485, 21.585], [88.481, 21.553], [88.505, 21.542], [88.547, 21.546], [88.544, 21.565], [88.573, 21.575], [88.594, 21.594], [88.625, 21.598], [88.664, 21.595], [88.733, 21.577], [88.787, 21.583], [88.799, 21.607], [88.832, 21.599], [88.831, 21.577], [88.844, 21.558], [88.88, 21.554], [88.898, 21.557], [88.897, 21.574], [88.872, 21.593], [88.843, 21.6], [88.845, 21.627], [88.865, 21.649], [88.886, 21.658], [88.946, 21.639], [88.962, 21.619], [88.99, 21.615], [88.999, 21.605], [89.034, 21.613], [89.035, 21.633], [89.063, 21.622], [89.121, 21.661], [89.106, 21.682], [89.096, 21.711], [89.083, 21.731], [89.047, 21.759], [89.031, 21.787], [89.033, 21.809], [89.044, 21.837], [89.041, 21.874], [89.024, 21.898], [89.037, 21.923], [89.072, 21.932], [89.083, 21.952], [89.082, 22.002], [89.077, 22.028], [89.056, 22.048], [89.044, 22.091], [89.053, 22.115], [89.089, 22.14], [89.065, 22.163], [89.07, 22.182], [89.069, 22.201], [89.038, 22.233], [89.035, 22.258], [88.997, 22.284], [88.995, 22.294], [89.025, 22.297], [88.999, 22.324], [88.985, 22.328], [88.993, 22.389], [88.973, 22.407], [89, 22.43], [88.99, 22.445], [88.994, 22.475], [88.981, 22.483], [88.962, 22.549], [88.94, 22.558], [88.941, 22.595], [88.958, 22.61], [88.939, 22.617], [88.925, 22.657], [88.938, 22.662], [88.96, 22.694], [88.927, 22.717], [88.916, 22.736], [88.914, 22.76], [88.923, 22.781], [88.948, 22.8], [88.963, 22.819], [88.969, 22.845], [88.948, 22.875], [88.928, 22.871], [88.91, 22.878], [88.897, 22.897], [88.905, 22.923], [88.89, 22.927], [88.894, 22.952], [88.855, 22.956], [88.865, 23.001], [88.879, 23.01], [88.872, 23.064], [88.859, 23.078], [88.869, 23.102], [88.9, 23.116], [88.903, 23.126], [88.93, 23.147], [88.926, 23.162], [88.944, 23.183], [88.987, 23.206], [88.973, 23.223], [88.942, 23.204], [88.922, 23.215], [88.909, 23.233], [88.882, 23.229], [88.844, 23.229], [88.815, 23.25], [88.807, 23.218], [88.778, 23.22], [88.769, 23.243], [88.752, 23.24], [88.719, 23.255], [88.712, 23.278], [88.696, 23.302], [88.747, 23.321], [88.731, 23.334], [88.758, 23.384], [88.747, 23.397], [88.763, 23.449], [88.782, 23.443], [88.786, 23.468], [88.776, 23.479], [88.755, 23.477], [88.695, 23.516], [88.676, 23.545], [88.652, 23.555], [88.647, 23.585], [88.631, 23.607], [88.606, 23.599], [88.578, 23.602], [88.591, 23.619], [88.591, 23.638], [88.562, 23.635], [88.556, 23.649], [88.571, 23.67], [88.559, 23.712], [88.57, 23.731], [88.569, 23.749], [88.579, 23.762], [88.574, 23.785], [88.59, 23.8], [88.585, 23.83], [88.587, 23.873], [88.619, 23.879], [88.651, 23.87], [88.682, 23.89], [88.707, 23.918], [88.731, 23.923], [88.739, 23.937], [88.73, 23.961], [88.745, 23.987], [88.727, 24.002], [88.739, 24.033], [88.723, 24.042], [88.728, 24.061], [88.71, 24.082], [88.705, 24.099], [88.699, 24.145], [88.727, 24.189], [88.741, 24.201], [88.741, 24.249], [88.724, 24.291], [88.673, 24.335], [88.647, 24.341], [88.578, 24.333], [88.541, 24.334], [88.507, 24.347], [88.467, 24.368], [88.445, 24.374], [88.417, 24.373], [88.388, 24.383], [88.319, 24.456], [88.304, 24.477], [88.271, 24.478], [88.202, 24.448], [88.179, 24.451], [88.162, 24.466], [88.153, 24.484], [88.153, 24.505], [88.168, 24.533], [88.172, 24.571], [88.163, 24.583], [88.156, 24.617], [88.134, 24.637], [88.118, 24.64], [88.089, 24.635], [88.037, 24.645], [88.008, 24.667], [88.013, 24.676], [88.058, 24.719], [88.071, 24.744], [88.064, 24.751], [88.089, 24.784], [88.104, 24.782], [88.11, 24.813], [88.14, 24.842], [88.16, 24.846], [88.165, 24.862], [88.151, 24.885], [88.152, 24.906], [88.139, 24.913], [88.137, 24.937], [88.156, 24.935], [88.17, 24.952], [88.19, 24.952], [88.225, 24.962], [88.243, 24.934], [88.259, 24.927], [88.266, 24.895], [88.294, 24.891], [88.333, 24.871], [88.347, 24.892], [88.324, 24.917], [88.363, 24.949], [88.381, 24.94], [88.401, 24.951], [88.393, 24.964], [88.413, 24.974], [88.426, 25.021], [88.441, 25.032], [88.448, 25.065], [88.44, 25.118], [88.459, 25.135], [88.46, 25.159], [88.443, 25.184], [88.443, 25.198], [88.464, 25.197], [88.474, 25.214], [88.5, 25.212], [88.562, 25.191], [88.578, 25.179], [88.614, 25.207], [88.666, 25.205], [88.686, 25.212], [88.719, 25.207], [88.756, 25.181], [88.803, 25.172], [88.844, 25.216], [88.878, 25.181], [88.912, 25.182], [88.921, 25.169], [88.945, 25.19], [88.938, 25.213], [88.958, 25.211], [88.95, 25.247], [88.975, 25.261], [88.984, 25.273], [89.004, 25.271], [89.009, 25.292], [88.989, 25.29], [88.98, 25.304], [88.944, 25.299], [88.914, 25.311], [88.905, 25.327], [88.883, 25.324], [88.853, 25.361], [88.837, 25.368], [88.835, 25.399], [88.826, 25.42], [88.826, 25.449], [88.836, 25.455], [88.828, 25.488], [88.812, 25.488], [88.806, 25.518], [88.785, 25.513], [88.766, 25.521], [88.762, 25.494], [88.741, 25.501], [88.717, 25.498], [88.7, 25.47], [88.645, 25.477], [88.639, 25.498], [88.622, 25.496], [88.551, 25.515], [88.499, 25.55], [88.492, 25.558], [88.498, 25.582], [88.468, 25.582], [88.447, 25.595], [88.443, 25.615], [88.455, 25.642], [88.452, 25.663], [88.402, 25.671], [88.403, 25.684], [88.37, 25.695], [88.371, 25.714], [88.335, 25.737], [88.32, 25.737], [88.313, 25.753], [88.264, 25.781], [88.267, 25.808], [88.237, 25.81], [88.209, 25.785], [88.185, 25.799], [88.172, 25.783], [88.151, 25.774], [88.143, 25.792], [88.113, 25.796], [88.117, 25.812], [88.099, 25.829], [88.113, 25.852], [88.101, 25.874], [88.099, 25.898], [88.084, 25.914], [88.094, 25.931], [88.108, 25.936], [88.112, 25.961], [88.126, 25.983], [88.136, 26.014], [88.158, 26.024], [88.18, 26.072], [88.16, 26.075], [88.157, 26.098], [88.167, 26.112], [88.175, 26.15], [88.231, 26.176], [88.248, 26.192], [88.274, 26.19], [88.284, 26.201], [88.308, 26.206], [88.349, 26.223], [88.348, 26.283], [88.369, 26.307], [88.407, 26.322], [88.412, 26.339], [88.434, 26.337], [88.444, 26.364], [88.478, 26.359], [88.512, 26.365], [88.521, 26.391], [88.479, 26.47], [88.445, 26.473], [88.393, 26.488], [88.372, 26.464], [88.357, 26.457], [88.335, 26.496], [88.355, 26.534], [88.355, 26.55], [88.368, 26.564], [88.376, 26.598], [88.397, 26.628], [88.414, 26.635], [88.433, 26.551], [88.476, 26.546], [88.491, 26.532], [88.491, 26.519], [88.521, 26.513], [88.53, 26.483], [88.559, 26.486], [88.565, 26.459], [88.594, 26.456], [88.594, 26.472], [88.624, 26.473], [88.631, 26.436], [88.651, 26.431], [88.652, 26.418], [88.687, 26.406], [88.69, 26.367], [88.705, 26.343], [88.747, 26.348], [88.758, 26.307], [88.783, 26.305], [88.794, 26.311], [88.82, 26.294], [88.812, 26.276], [88.815, 26.257], [88.829, 26.242], [88.86, 26.234], [88.868, 26.276], [88.88, 26.288], [88.908, 26.29], [88.93, 26.28], [88.957, 26.241], [88.99, 26.247], [89.034, 26.248], [89.049, 26.241], [89.063, 26.255], [89.061, 26.281], [89.045, 26.274], [89.013, 26.29], [89.001, 26.29], [88.979, 26.309], [88.984, 26.332], [88.973, 26.348], [88.922, 26.358], [88.906, 26.38], [88.93, 26.411], [88.945, 26.449], [88.968, 26.453], [88.985, 26.447], [88.985, 26.423], [89.005, 26.423], [89.039, 26.402], [89.088, 26.4], [89.098, 26.391], [89.092, 26.362], [89.103, 26.337], [89.137, 26.323], [89.138, 26.308], [89.112, 26.275], [89.128, 26.264], [89.143, 26.238], [89.15, 26.205], [89.138, 26.186], [89.156, 26.141], [89.192, 26.128], [89.23, 26.125], [89.269, 26.093], [89.256, 26.066], [89.284, 26.064], [89.325, 26.039], [89.34, 26.02], [89.359, 26.011], [89.378, 26.014], [89.401, 26.029], [89.411, 26.049], [89.434, 26.039], [89.433, 26.017], [89.458, 26.001], [89.517, 26.011], [89.541, 26.007], [89.54, 25.974], [89.585, 25.98], [89.577, 26.027], [89.589, 26.04], [89.63, 26.064], [89.633, 26.1], [89.607, 26.088], [89.593, 26.101], [89.602, 26.119], [89.595, 26.134], [89.596, 26.162], [89.609, 26.181], [89.628, 26.183], [89.635, 26.197], [89.629, 26.225], [89.67, 26.222], [89.687, 26.226], [89.709, 26.184], [89.696, 26.168], [89.721, 26.165], [89.749, 26.158], [89.767, 26.125], [89.757, 26.113], [89.787, 26.104], [89.797, 26.086], [89.8, 26.059], [89.822, 26.026], [89.822, 25.988], [89.843, 25.99], [89.859, 25.982], [89.835, 25.962], [89.815, 25.952], [89.853, 25.938], [89.866, 25.951], [89.881, 25.945], [89.878, 25.919], [89.861, 25.907], [89.863, 25.893], [89.84, 25.872], [89.84, 25.859], [89.822, 25.822], [89.839, 25.784], [89.833, 25.74], [89.853, 25.707], [89.848, 25.696], [89.872, 25.663], [89.884, 25.617], [89.866, 25.547], [89.853, 25.538], [89.862, 25.516], [89.851, 25.477], [89.829, 25.424], [89.821, 25.38], [89.824, 25.349], [89.843, 25.315], [89.833, 25.297], [89.877, 25.287], [89.899, 25.306], [89.966, 25.305], [89.983, 25.282], [90.01, 25.278], [90.035, 25.263], [90.056, 25.263], [90.075, 25.245], [90.118, 25.225], [90.173, 25.225], [90.197, 25.213], [90.286, 25.195], [90.331, 25.193], [90.371, 25.164], [90.412, 25.158], [90.444, 25.146], [90.499, 25.171], [90.538, 25.175], [90.561, 25.172], [90.59, 25.176], [90.618, 25.172], [90.661, 25.187], [90.666, 25.166], [90.708, 25.162], [90.759, 25.17], [90.779, 25.186], [90.796, 25.183], [90.808, 25.166], [90.851, 25.158], [90.891, 25.169], [90.926, 25.162], [90.941, 25.171], [90.965, 25.173], [91.009, 25.185], [91.067, 25.193], [91.073, 25.199], [91.136, 25.195], [91.17, 25.197], [91.213, 25.204], [91.241, 25.199], [91.269, 25.209], [91.328, 25.178], [91.411, 25.172], [91.425, 25.16], [91.471, 25.151], [91.466, 25.136], [91.501, 25.136], [91.515, 25.148], [91.529, 25.145], [91.557, 25.155], [91.576, 25.172], [91.61, 25.176], [91.598, 25.155], [91.621, 25.144], [91.621, 25.129], [91.643, 25.118], [91.664, 25.138], [91.693, 25.139], [91.704, 25.162], [91.739, 25.15], [91.748, 25.174], [91.775, 25.164], [91.839, 25.176], [91.861, 25.172], [91.921, 25.182], [91.967, 25.176], [91.98, 25.169], [92.002, 25.185], [92.026, 25.185], [92.064, 25.186], [92.123, 25.17], [92.136, 25.143], [92.171, 25.126], [92.194, 25.135], [92.225, 25.117], [92.21, 25.108], [92.259, 25.086], [92.318, 25.07], [92.348, 25.073], [92.361, 25.052], [92.401, 25.036], [92.43, 25.027], [92.424, 24.966], [92.458, 24.972], [92.474, 24.942], [92.499, 24.906], [92.489, 24.876], [92.483, 24.862], [92.459, 24.874], [92.441, 24.87], [92.438, 24.856], [92.413, 24.859], [92.4, 24.848], [92.384, 24.852], [92.375, 24.873], [92.345, 24.881], [92.306, 24.902], [92.294, 24.916], [92.281, 24.906], [92.247, 24.909], [92.25, 24.886], [92.239, 24.867], [92.244, 24.843], [92.27, 24.832], [92.282, 24.796], [92.269, 24.774], [92.269, 24.755], [92.298, 24.736], [92.277, 24.709], [92.256, 24.659], [92.247, 24.615], [92.24, 24.605], [92.233, 24.563], [92.233, 24.531], [92.221, 24.513], [92.215, 24.503], [92.185, 24.521], [92.162, 24.527], [92.153, 24.498], [92.169, 24.436], [92.165, 24.417], [92.138, 24.424], [92.122, 24.381], [92.091, 24.371], [92.073, 24.374], [92.044, 24.373], [91.996, 24.388], [91.975, 24.381], [91.983, 24.354], [91.961, 24.358], [91.924, 24.331], [91.948, 24.264], [91.933, 24.241], [91.92, 24.195], [91.915, 24.15], [91.904, 24.137], [91.891, 24.132], [91.877, 24.146], [91.872, 24.173], [91.848, 24.206], [91.788, 24.218], [91.773, 24.23], [91.748, 24.236], [91.759, 24.182], [91.762, 24.142], [91.728, 24.141], [91.718, 24.151], [91.693, 24.158], [91.681, 24.171], [91.678, 24.193], [91.666, 24.211], [91.657, 24.174], [91.648, 24.169], [91.643, 24.134], [91.647, 24.112], [91.637, 24.102], [91.594, 24.083], [91.584, 24.073], [91.545, 24.073], [91.489, 24.096], [91.455, 24.097], [91.412, 24.116], [91.376, 24.108], [91.378, 24.08], [91.398, 24.048], [91.392, 24.026], [91.376, 24.004], [91.38, 23.976], [91.341, 23.981], [91.322, 23.993], [91.283, 23.977], [91.265, 23.945], [91.277, 23.922], [91.243, 23.922], [91.246, 23.906], [91.23, 23.898], [91.239, 23.864], [91.254, 23.84], [91.234, 23.808], [91.227, 23.787], [91.232, 23.765], [91.225, 23.746], [91.168, 23.748], [91.151, 23.712], [91.157, 23.691], [91.21, 23.688], [91.205, 23.657], [91.174, 23.659], [91.163, 23.654], [91.161, 23.619], [91.179, 23.585], [91.21, 23.542], [91.202, 23.52], [91.224, 23.515], [91.238, 23.49], [91.255, 23.479], [91.248, 23.458], [91.28, 23.43], [91.281, 23.378], [91.287, 23.364], [91.309, 23.36], [91.292, 23.319], [91.31, 23.315], [91.304, 23.287], [91.312, 23.276], [91.326, 23.254], [91.325, 23.159], [91.349, 23.12], [91.348, 23.103], [91.371, 23.072], [91.397, 23.058], [91.412, 23.077], [91.399, 23.096], [91.402, 23.113], [91.388, 23.152], [91.38, 23.193], [91.4, 23.231], [91.39, 23.248], [91.408, 23.286], [91.418, 23.268], [91.455, 23.261], [91.461, 23.244], [91.486, 23.209], [91.485, 23.19], [91.504, 23.193], [91.498, 23.147], [91.516, 23.138], [91.513, 23.106], [91.537, 23.063], [91.532, 23.04], [91.552, 23.038], [91.544, 23.001], [91.571, 22.99], [91.57, 22.981], [91.607, 22.972], [91.613, 22.949], [91.64, 22.971], [91.664, 22.982], [91.679, 22.977], [91.692, 22.987], [91.738, 22.993], [91.748, 23.017], [91.775, 23.04], [91.777, 23.073], [91.805, 23.068], [91.821, 23.085], [91.805, 23.156], [91.803, 23.179], [91.787, 23.204], [91.789, 23.226], [91.775, 23.243], [91.775, 23.268], [91.759, 23.277], [91.763, 23.31], [91.819, 23.354], [91.836, 23.373], [91.837, 23.397], [91.871, 23.417], [91.886, 23.431], [91.899, 23.442], [91.94, 23.44], [91.933, 23.466], [91.966, 23.484], [91.967, 23.512], [91.958, 23.584], [91.949, 23.59], [91.953, 23.613], [91.942, 23.641], [91.946, 23.654], [91.934, 23.676], [91.935, 23.696], [91.948, 23.734], [91.979, 23.734], [91.986, 23.71], [92.003, 23.693], [92.024, 23.661], [92.06, 23.662], [92.075, 23.668], [92.103, 23.703], [92.126, 23.712], [92.147, 23.732], [92.175, 23.736], [92.198, 23.718], [92.21, 23.694], [92.206, 23.67], [92.227, 23.667], [92.244, 23.693], [92.248, 23.725], [92.262, 23.723], [92.288, 23.707], [92.291, 23.691], [92.284, 23.662], [92.273, 23.642], [92.29, 23.628], [92.287, 23.596], [92.309, 23.578], [92.309, 23.55], [92.318, 23.527], [92.321, 23.475], [92.334, 23.429], [92.348, 23.413], [92.357, 23.372], [92.376, 23.366], [92.381, 23.352], [92.368, 23.326], [92.386, 23.306], [92.381, 23.286], [92.393, 23.269], [92.399, 23.242], [92.361, 23.241], [92.354, 23.21], [92.367, 23.184], [92.358, 23.147], [92.373, 23.124], [92.358, 23.103], [92.377, 23.087], [92.392, 23.057], [92.379, 23.012], [92.384, 22.982], [92.374, 22.972], [92.378, 22.932], [92.398, 22.93], [92.421, 22.91], [92.452, 22.863], [92.464, 22.854], [92.454, 22.819], [92.472, 22.796], [92.474, 22.747], [92.494, 22.743], [92.516, 22.723], [92.519, 22.688], [92.526, 22.674], [92.525, 22.64], [92.538, 22.594], [92.533, 22.572], [92.522, 22.56], [92.54, 22.541], [92.548, 22.508], [92.543, 22.491], [92.555, 22.431], [92.552, 22.416], [92.562, 22.371], [92.573, 22.348], [92.581, 22.276], [92.592, 22.24], [92.588, 22.23], [92.596, 22.194], [92.598, 22.152], [92.566, 22.133], [92.602, 22.053], [92.609, 21.997], [92.614, 21.986], [92.638, 21.994], [92.655, 22.022], [92.678, 22.017], [92.675, 22.044], [92.688, 22.055], [92.681, 22.111], [92.688, 22.148], [92.704, 22.167], [92.731, 22.145], [92.754, 22.139], [92.766, 22.118], [92.78, 22.119], [92.792, 22.104], [92.813, 22.1], [92.815, 22.087], [92.845, 22.071], [92.857, 22.071], [92.864, 22.038], [92.886, 22.023], [92.9, 21.993], [92.897, 21.972], [92.913, 21.971], [92.923, 22.027], [92.963, 22.034], [92.984, 21.993], [93.005, 21.992], [93.005, 22.025], [92.996, 22.053], [93.011, 22.094], [93.004, 22.106], [93.053, 22.105], [93.058, 22.125], [93.039, 22.139], [93.047, 22.161], [93.043, 22.198], [93.062, 22.207], [93.076, 22.197], [93.112, 22.199], [93.123, 22.175], [93.156, 22.173], [93.162, 22.193], [93.156, 22.214], [93.141, 22.228], [93.148, 22.242], [93.166, 22.247], [93.186, 22.24], [93.2, 22.248], [93.204, 22.285], [93.191, 22.294], [93.196, 22.314], [93.187, 22.331], [93.192, 22.358], [93.184, 22.369], [93.188, 22.42], [93.157, 22.447], [93.125, 22.464], [93.132, 22.489], [93.118, 22.504], [93.12, 22.519], [93.104, 22.538], [93.111, 22.558], [93.142, 22.594], [93.134, 22.622], [93.103, 22.645], [93.11, 22.654], [93.089, 22.68], [93.1, 22.69], [93.083, 22.715], [93.095, 22.728], [93.106, 22.765], [93.087, 22.791], [93.088, 22.809], [93.107, 22.832], [93.108, 22.853], [93.123, 22.87], [93.141, 22.93], [93.132, 22.984], [93.118, 23.002], [93.116, 23.028], [93.122, 23.048], [93.164, 23.045], [93.178, 23.06], [93.21, 23.043], [93.211, 23.026], [93.225, 23.013], [93.25, 23.002], [93.294, 23.005], [93.325, 23.029], [93.35, 23.087], [93.35, 23.107], [93.375, 23.114], [93.367, 23.132], [93.38, 23.213], [93.362, 23.245], [93.37, 23.257], [93.356, 23.275], [93.368, 23.305], [93.357, 23.316], [93.349, 23.354], [93.369, 23.356], [93.392, 23.384], [93.382, 23.391], [93.383, 23.422], [93.382, 23.448], [93.389, 23.47], [93.389, 23.497], [93.402, 23.503], [93.408, 23.551], [93.419, 23.573], [93.41, 23.618], [93.424, 23.661], [93.401, 23.676], [93.381, 23.742], [93.393, 23.767], [93.38, 23.784], [93.382, 23.808], [93.376, 23.844], [93.386, 23.865], [93.389, 23.91], [93.366, 23.909], [93.357, 23.926], [93.339, 23.953], [93.331, 23.989], [93.341, 24.013], [93.328, 24.019], [93.331, 24.037], [93.315, 24.042], [93.329, 24.054], [93.322, 24.09], [93.338, 24.102], [93.354, 24.088], [93.386, 24.073], [93.401, 24.073], [93.422, 24.049], [93.429, 24.014], [93.447, 24.008], [93.452, 23.974], [93.463, 23.956], [93.507, 23.935], [93.517, 23.95], [93.547, 23.957], [93.55, 23.973], [93.585, 23.954], [93.605, 23.97], [93.612, 24], [93.641, 24.004], [93.655, 23.997], [93.694, 24.003], [93.725, 23.993], [93.743, 24], [93.763, 24.006], [93.766, 23.988], [93.8, 23.951], [93.801, 23.932], [93.821, 23.924], [93.862, 23.933], [93.896, 23.954], [93.936, 23.954], [93.958, 23.929], [93.978, 23.93], [94.019, 23.921], [94.041, 23.909], [94.04, 23.899], [94.073, 23.883], [94.098, 23.888], [94.107, 23.874], [94.117, 23.835], [94.126, 23.831], [94.156, 23.848], [94.173, 23.934], [94.196, 23.937], [94.207, 23.977], [94.247, 24.042], [94.238, 24.061], [94.253, 24.065], [94.265, 24.098], [94.264, 24.13], [94.272, 24.161], [94.289, 24.171], [94.303, 24.229], [94.319, 24.243], [94.336, 24.279], [94.335, 24.328], [94.364, 24.338], [94.392, 24.376], [94.374, 24.393], [94.408, 24.408], [94.417, 24.438], [94.406, 24.454], [94.41, 24.478], [94.433, 24.481], [94.476, 24.573], [94.498, 24.579], [94.526, 24.596], [94.557, 24.648], [94.564, 24.685], [94.558, 24.713], [94.573, 24.716], [94.614, 24.708], [94.624, 24.741], [94.638, 24.754], [94.632, 24.779], [94.641, 24.808], [94.645, 24.848], [94.659, 24.859], [94.666, 24.88], [94.695, 24.894], [94.709, 24.936], [94.72, 24.94], [94.706, 24.971], [94.711, 24.996], [94.734, 25.014], [94.749, 25.053], [94.752, 25.102], [94.74, 25.139], [94.711, 25.15], [94.646, 25.176], [94.629, 25.191], [94.615, 25.191], [94.585, 25.217], [94.592, 25.237], [94.599, 25.283], [94.621, 25.332], [94.644, 25.364], [94.642, 25.397], [94.673, 25.419], [94.681, 25.432], [94.691, 25.452], [94.722, 25.455], [94.748, 25.467], [94.789, 25.468], [94.814, 25.481], [94.832, 25.512], [94.833, 25.53], [94.864, 25.555], [94.91, 25.559], [94.896, 25.573], [94.932, 25.595], [94.938, 25.628], [94.95, 25.651], [95.002, 25.688], [95.005, 25.702], [95.052, 25.726], [95.06, 25.742], [95.06, 25.78], [95.042, 25.8], [95.039, 25.829], [95.022, 25.861], [95.024, 25.882], [95.058, 25.917], [95.102, 25.929], [95.124, 25.961], [95.135, 25.964], [95.169, 26.003], [95.174, 26.029], [95.196, 26.05], [95.177, 26.071], [95.153, 26.065], [95.127, 26.075], [95.12, 26.092], [95.13, 26.106], [95.123, 26.137], [95.129, 26.166], [95.15, 26.191], [95.123, 26.211], [95.134, 26.227], [95.128, 26.252], [95.138, 26.281], [95.131, 26.314], [95.139, 26.324], [95.149, 26.362], [95.114, 26.39], [95.12, 26.41], [95.099, 26.439], [95.078, 26.445], [95.088, 26.471], [95.125, 26.512], [95.117, 26.537], [95.149, 26.555], [95.164, 26.575], [95.154, 26.586], [95.156, 26.609], [95.173, 26.629], [95.215, 26.639], [95.234, 26.667], [95.232, 26.684], [95.249, 26.698], [95.271, 26.691], [95.272, 26.672], [95.312, 26.667], [95.323, 26.678], [95.353, 26.692], [95.369, 26.689], [95.442, 26.719], [95.444, 26.733], [95.468, 26.756], [95.486, 26.758], [95.496, 26.772], [95.516, 26.817], [95.548, 26.842], [95.564, 26.841], [95.573, 26.827], [95.615, 26.821], [95.64, 26.85], [95.649, 26.88], [95.688, 26.908], [95.721, 26.903], [95.732, 26.904], [95.754, 26.93], [95.755, 26.972], [95.776, 26.998], [95.793, 27.031], [95.825, 27.019], [95.871, 27.024], [95.898, 27.048], [95.921, 27.056], [95.963, 27.084], [95.978, 27.105], [95.994, 27.142], [96.031, 27.178], [96.043, 27.197], [96.074, 27.219], [96.092, 27.223], [96.128, 27.247], [96.171, 27.264], [96.199, 27.263], [96.244, 27.293], [96.285, 27.287], [96.291, 27.297], [96.32, 27.307], [96.359, 27.297], [96.365, 27.307], [96.391, 27.298], [96.429, 27.303], [96.434, 27.312], [96.504, 27.312], [96.532, 27.295], [96.552, 27.314], [96.584, 27.329], [96.619, 27.373], [96.658, 27.365], [96.675, 27.367], [96.75, 27.354], [96.766, 27.359], [96.802, 27.339], [96.823, 27.311], [96.849, 27.292], [96.85, 27.273], [96.882, 27.262], [96.887, 27.231], [96.861, 27.213], [96.861, 27.196], [96.899, 27.176], [96.931, 27.17], [96.965, 27.171], [96.995, 27.151], [97.011, 27.15], [97.061, 27.114], [97.094, 27.111], [97.097, 27.123], [97.138, 27.109], [97.147, 27.136], [97.161, 27.155], [97.143, 27.181], [97.131, 27.18], [97.108, 27.211], [97.086, 27.227], [97.083, 27.251], [97.034, 27.294], [97.023, 27.317], [97.003, 27.319], [96.986, 27.35], [96.96, 27.378], [96.956, 27.408], [96.93, 27.419], [96.906, 27.472], [96.934, 27.519], [96.927, 27.544], [96.917, 27.549], [96.918, 27.587], [96.901, 27.589], [96.907, 27.623], [96.918, 27.623], [96.952, 27.666], [96.991, 27.668], [96.996, 27.689], [97.026, 27.726], [97.027, 27.738], [97.049, 27.747], [97.072, 27.745], [97.091, 27.736], [97.125, 27.781], [97.15, 27.798], [97.165, 27.798], [97.179, 27.821], [97.236, 27.863], [97.252, 27.885], [97.311, 27.901], [97.33, 27.874], [97.355, 27.871], [97.365, 27.86], [97.387, 27.875], [97.38, 27.892], [97.373, 27.957], [97.391, 27.968], [97.38, 27.998], [97.393, 28.021], [97.363, 28.034], [97.356, 28.059], [97.307, 28.054], [97.3, 28.071], [97.305, 28.087], [97.336, 28.109], [97.315, 28.141], [97.351, 28.168], [97.362, 28.188], [97.393, 28.186], [97.38, 28.207], [97.336, 28.223], [97.286, 28.254], [97.243, 28.254], [97.215, 28.275], [97.185, 28.272], [97.163, 28.279], [97.133, 28.318], [97.079, 28.34], [97.042, 28.334], [97.024, 28.313], [96.994, 28.305], [96.964, 28.313], [96.918, 28.338], [96.915, 28.353], [96.894, 28.376], [96.855, 28.359], [96.805, 28.357], [96.765, 28.361], [96.746, 28.393], [96.725, 28.411], [96.694, 28.419], [96.642, 28.443], [96.598, 28.44], [96.588, 28.445], [96.555, 28.437], [96.5, 28.398], [96.479, 28.406], [96.444, 28.398], [96.42, 28.367], [96.414, 28.341], [96.388, 28.321], [96.367, 28.347], [96.359, 28.37], [96.324, 28.368], [96.319, 28.376], [96.273, 28.392], [96.31, 28.412], [96.376, 28.459], [96.373, 28.477], [96.329, 28.507], [96.351, 28.53], [96.391, 28.537], [96.417, 28.561], [96.433, 28.568], [96.461, 28.595], [96.479, 28.607], [96.488, 28.628], [96.466, 28.664], [96.489, 28.671], [96.527, 28.69], [96.564, 28.693], [96.601, 28.725], [96.611, 28.758], [96.605, 28.773], [96.572, 28.807], [96.53, 28.875], [96.523, 28.922], [96.51, 28.946], [96.479, 28.955], [96.468, 28.98], [96.481, 29.001], [96.515, 29.067], [96.489, 29.059], [96.448, 29.031], [96.429, 29.025], [96.345, 29.022], [96.33, 29.007], [96.294, 28.988], [96.256, 28.955], [96.239, 28.924], [96.179, 28.888], [96.168, 28.908], [96.153, 28.916], [96.16, 28.938], [96.188, 28.956], [96.188, 28.976], [96.154, 29.041], [96.123, 29.058], [96.169, 29.069], [96.187, 29.077], [96.207, 29.098], [96.222, 29.128], [96.243, 29.135], [96.261, 29.15], [96.336, 29.157], [96.354, 29.166], [96.367, 29.203], [96.392, 29.24], [96.378, 29.274], [96.351, 29.278], [96.342, 29.262], [96.303, 29.245], [96.293, 29.232], [96.252, 29.223], [96.239, 29.229], [96.182, 29.29], [96.179, 29.322], [96.161, 29.347], [96.144, 29.385], [96.118, 29.397], [96.089, 29.436], [96.066, 29.451], [96.048, 29.449], [96.023, 29.432], [96.001, 29.404], [95.977, 29.4], [95.947, 29.37], [95.927, 29.369], [95.863, 29.381], [95.83, 29.342], [95.813, 29.345], [95.783, 29.326], [95.768, 29.343], [95.715, 29.293], [95.685, 29.292], [95.675, 29.272], [95.643, 29.247], [95.618, 29.236], [95.594, 29.247], [95.572, 29.238], [95.574, 29.21], [95.555, 29.201], [95.535, 29.205], [95.528, 29.189], [95.538, 29.162], [95.537, 29.118], [95.518, 29.113], [95.497, 29.124], [95.48, 29.122], [95.479, 29.073], [95.454, 29.035], [95.406, 29.029], [95.354, 29.039], [95.302, 29.06], [95.27, 29.051], [95.26, 29.062], [95.26, 29.099], [95.215, 29.096], [95.159, 29.106], [95.122, 29.108], [95.102, 29.133], [95.049, 29.142], [95.028, 29.141], [95.025, 29.123], [94.997, 29.135], [94.971, 29.153], [94.921, 29.154], [94.905, 29.17], [94.878, 29.179], [94.849, 29.178], [94.81, 29.167], [94.807, 29.213], [94.77, 29.246], [94.746, 29.277], [94.731, 29.283], [94.71, 29.304], [94.657, 29.335], [94.631, 29.298], [94.592, 29.275], [94.591, 29.253], [94.58, 29.236], [94.546, 29.217], [94.477, 29.217], [94.446, 29.225], [94.399, 29.193], [94.386, 29.19], [94.377, 29.159], [94.364, 29.149], [94.303, 29.151], [94.278, 29.131], [94.248, 29.099], [94.204, 29.065], [94.192, 29.047], [94.182, 29.011], [94.163, 28.986], [94.16, 28.955], [94.138, 28.913], [94.046, 28.865], [94.018, 28.839], [93.983, 28.832], [93.987, 28.816], [93.973, 28.797], [93.987, 28.774], [93.986, 28.759], [93.972, 28.752], [93.966, 28.704], [93.941, 28.667], [93.931, 28.664], [93.891, 28.682], [93.87, 28.698], [93.842, 28.699], [93.793, 28.665], [93.772, 28.665], [93.763, 28.677], [93.736, 28.68], [93.704, 28.675], [93.647, 28.652], [93.584, 28.65], [93.54, 28.66], [93.503, 28.66], [93.496, 28.672], [93.468, 28.685], [93.413, 28.659], [93.366, 28.65], [93.329, 28.639], [93.322, 28.628], [93.327, 28.608], [93.297, 28.595], [93.301, 28.571], [93.286, 28.536], [93.282, 28.507], [93.238, 28.478], [93.215, 28.454], [93.187, 28.439], [93.229, 28.411], [93.231, 28.35], [93.223, 28.325], [93.182, 28.319], [93.133, 28.329], [93.097, 28.304], [93.068, 28.305], [93.024, 28.297], [93.032, 28.27], [92.995, 28.231], [92.957, 28.254], [92.916, 28.234], [92.897, 28.207], [92.853, 28.178], [92.833, 28.174], [92.809, 28.201], [92.792, 28.185], [92.738, 28.152], [92.701, 28.136], [92.692, 28.122], [92.677, 28.079], [92.709, 28.066], [92.741, 28.036], [92.75, 28.008], [92.731, 27.974], [92.664, 27.911], [92.609, 27.89], [92.567, 27.836], [92.549, 27.834], [92.529, 27.851], [92.497, 27.853], [92.482, 27.843], [92.464, 27.819], [92.448, 27.819], [92.417, 27.828], [92.382, 27.82], [92.376, 27.806], [92.306, 27.789], [92.291, 27.804], [92.269, 27.861], [92.225, 27.859], [92.184, 27.844], [92.096, 27.797], [92.045, 27.761], [92.026, 27.755], [91.988, 27.756], [91.97, 27.752], [91.91, 27.71], [91.863, 27.7], [91.837, 27.71], [91.849, 27.74], [91.838, 27.767], [91.802, 27.788], [91.757, 27.783], [91.721, 27.784], [91.683, 27.802], [91.66, 27.824], [91.626, 27.834], [91.603, 27.836], [91.571, 27.825], [91.59, 27.795], [91.604, 27.802], [91.628, 27.79], [91.64, 27.757], [91.616, 27.69], [91.565, 27.659], [91.556, 27.634], [91.579, 27.599], [91.563, 27.583], [91.566, 27.563], [91.585, 27.532], [91.602, 27.53], [91.616, 27.5], [91.638, 27.476], [91.67, 27.482], [91.683, 27.477], [91.7, 27.489], [91.711, 27.482], [91.726, 27.455], [91.759, 27.458], [91.791, 27.45], [91.82, 27.46], [91.835, 27.456], [91.848, 27.475], [91.891, 27.468], [91.93, 27.468], [91.968, 27.454], [91.994, 27.461], [91.999, 27.472], [92.006, 27.451], [92.026, 27.438], [92.022, 27.423], [92.038, 27.404], [92.046, 27.38], [92.033, 27.361], [92.057, 27.317], [92.097, 27.295], [92.115, 27.27], [92.086, 27.249], [92.051, 27.251], [92.028, 27.247], [92.057, 27.218], [92.057, 27.199], [92.047, 27.173], [92.025, 27.164], [92.016, 27.151], [92.025, 27.117], [92.012, 27.094], [92.023, 27.066], [92.04, 27.041], [92.076, 27.035], [92.076, 27.012], [92.093, 27.008], [92.107, 26.99], [92.111, 26.971], [92.102, 26.929], [92.104, 26.886], [92.1, 26.868], [92.057, 26.847], [92.019, 26.85], [91.988, 26.857], [91.956, 26.887], [91.9, 26.915], [91.856, 26.911], [91.834, 26.876], [91.805, 26.851], [91.73, 26.812], [91.707, 26.811], [91.682, 26.804], [91.626, 26.821], [91.593, 26.804], [91.496, 26.789], [91.481, 26.791], [91.411, 26.835], [91.382, 26.801], [91.339, 26.779], [91.298, 26.785], [91.252, 26.813], [91.24, 26.809], [91.184, 26.811], [91.133, 26.808], [91.092, 26.818], [91.057, 26.779], [90.999, 26.788], [90.958, 26.784], [90.9, 26.778], [90.874, 26.779], [90.806, 26.774], [90.745, 26.775], [90.704, 26.768], [90.683, 26.78], [90.653, 26.774], [90.634, 26.792], [90.564, 26.801], [90.464, 26.869], [90.445, 26.883], [90.414, 26.902], [90.359, 26.896], [90.35, 26.876], [90.316, 26.851], [90.295, 26.848], [90.257, 26.857], [90.219, 26.854], [90.199, 26.833], [90.188, 26.81], [90.193, 26.771], [90.15, 26.755], [90.072, 26.732], [90.05, 26.729], [90.007, 26.734], [89.962, 26.723], [89.894, 26.724], [89.867, 26.737], [89.861, 26.704], [89.812, 26.715], [89.782, 26.699], [89.761, 26.716], [89.764, 26.735], [89.728, 26.724], [89.708, 26.737], [89.674, 26.739], [89.663, 26.719], [89.619, 26.726], [89.647, 26.748], [89.658, 26.772], [89.642, 26.783], [89.627, 26.777], [89.616, 26.79], [89.572, 26.802], [89.533, 26.819], [89.505, 26.805], [89.464, 26.806], [89.454, 26.834], [89.395, 26.842], [89.382, 26.866], [89.365, 26.863], [89.343, 26.849], [89.321, 26.853], [89.312, 26.845], [89.26, 26.817], [89.239, 26.821], [89.195, 26.809], [89.178, 26.822], [89.134, 26.809], [89.117, 26.825], [89.108, 26.836], [89.109, 26.857], [89.093, 26.875], [89.091, 26.897], [89.052, 26.904], [89.052, 26.92], [89.031, 26.94], [89, 26.924], [88.977, 26.921], [88.949, 26.937], [88.961, 26.954], [88.954, 26.976], [88.925, 26.996], [88.9, 26.977], [88.894, 26.96], [88.878, 26.965], [88.876, 27.011], [88.885, 27.041], [88.876, 27.109], [88.832, 27.118], [88.806, 27.137], [88.792, 27.136], [88.758, 27.148], [88.772, 27.178], [88.791, 27.182], [88.807, 27.221], [88.807, 27.248], [88.842, 27.263], [88.88, 27.259], [88.906, 27.275], [88.916, 27.306], [88.929, 27.326], [88.896, 27.336], [88.887, 27.363], [88.874, 27.368], [88.863, 27.387], [88.849, 27.378], [88.813, 27.414], [88.79, 27.455], [88.79, 27.496], [88.796, 27.526], [88.782, 27.537], [88.774, 27.567], [88.792, 27.575], [88.812, 27.603], [88.813, 27.632], [88.839, 27.65], [88.854, 27.669], [88.853, 27.7], [88.869, 27.739], [88.859, 27.778], [88.861, 27.816], [88.888, 27.839], [88.889, 27.892], [88.869, 27.923], [88.844, 27.932], [88.848, 27.991], [88.837, 28.015], [88.813, 28.026], [88.79, 28.051], [88.759, 28.073], [88.694, 28.079], [88.675, 28.074], [88.646, 28.104], [88.629, 28.131], [88.615, 28.126], [88.624, 28.103], [88.583, 28.085], [88.562, 28.085], [88.56, 28.064], [88.541, 28.036], [88.509, 28.049], [88.491, 28.045], [88.469, 28.02], [88.434, 28.008], [88.398, 27.978], [88.372, 27.988], [88.346, 27.988], [88.313, 27.97], [88.288, 27.967], [88.252, 27.948], [88.241, 27.966], [88.211, 27.966], [88.204, 27.947], [88.182, 27.944], [88.147, 27.963], [88.132, 27.95], [88.137, 27.938], [88.122, 27.917], [88.139, 27.878], [88.178, 27.857], [88.196, 27.855], [88.2, 27.836], [88.185, 27.811], [88.197, 27.791], [88.181, 27.776], [88.179, 27.747], [88.158, 27.741], [88.148, 27.703], [88.155, 27.691], [88.144, 27.665], [88.12, 27.646], [88.115, 27.619], [88.106, 27.603], [88.09, 27.595], [88.061, 27.54], [88.062, 27.512], [88.044, 27.496], [88.079, 27.432], [88.05, 27.413], [88.042, 27.37], [88.058, 27.356], [88.067, 27.336], [88.053, 27.325], [88.032, 27.286], [88.031, 27.25], [88.019, 27.225], [88.008, 27.144], [87.987, 27.119], [87.995, 27.104], [88.012, 27.097], [88.016, 27.077], [88.038, 27.037], [88.06, 27.029], [88.078, 27.035], [88.11, 26.992], [88.129, 26.988], [88.121, 26.951], [88.146, 26.921], [88.136, 26.899], [88.162, 26.881], [88.174, 26.866], [88.168, 26.838], [88.181, 26.816], [88.179, 26.801], [88.19, 26.761], [88.182, 26.72], [88.167, 26.7], [88.165, 26.641], [88.141, 26.62], [88.102, 26.559], [88.102, 26.542], [88.103, 26.516], [88.091, 26.504], [88.107, 26.465], [88.094, 26.45], [88.096, 26.432], [88.068, 26.421], [88.064, 26.408], [88.035, 26.392], [88.026, 26.372], [88.008, 26.361], [87.992, 26.372], [87.992, 26.393], [87.966, 26.397], [87.931, 26.418], [87.924, 26.447], [87.9, 26.478], [87.864, 26.468], [87.849, 26.437], [87.793, 26.469], [87.777, 26.454], [87.775, 26.425], [87.754, 26.408], [87.734, 26.408], [87.711, 26.427], [87.677, 26.436], [87.678, 26.416], [87.65, 26.406], [87.652, 26.394], [87.612, 26.39], [87.587, 26.382], [87.59, 26.391], [87.553, 26.406], [87.548, 26.419], [87.516, 26.431], [87.467, 26.441], [87.428, 26.423], [87.389, 26.419], [87.369, 26.408], [87.356, 26.386], [87.358, 26.361], [87.341, 26.348], [87.313, 26.368], [87.266, 26.374], [87.266, 26.406], [87.247, 26.414], [87.187, 26.414], [87.163, 26.404], [87.138, 26.416], [87.092, 26.45], [87.08, 26.522], [87.073, 26.542], [87.045, 26.555], [87.015, 26.532], [86.975, 26.52], [86.961, 26.524], [86.933, 26.517], [86.93, 26.49], [86.894, 26.488], [86.894, 26.462], [86.861, 26.458], [86.833, 26.439], [86.77, 26.458], [86.754, 26.447], [86.748, 26.428], [86.699, 26.438], [86.696, 26.449], [86.638, 26.464], [86.626, 26.481], [86.57, 26.497], [86.542, 26.539], [86.497, 26.542], [86.456, 26.568], [86.42, 26.575], [86.397, 26.594], [86.356, 26.604], [86.344, 26.617], [86.308, 26.62], [86.293, 26.613], [86.253, 26.615], [86.231, 26.593], [86.198, 26.594], [86.192, 26.615], [86.172, 26.617], [86.155, 26.61], [86.139, 26.629], [86.119, 26.63], [86.074, 26.65], [86.068, 26.658], [86.028, 26.667], [86.006, 26.656], [85.976, 26.658], [85.956, 26.649], [85.955, 26.629], [85.927, 26.61], [85.892, 26.594], [85.859, 26.569], [85.851, 26.609], [85.831, 26.611], [85.82, 26.603], [85.801, 26.624], [85.769, 26.63], [85.732, 26.654], [85.724, 26.674], [85.724, 26.7], [85.735, 26.778], [85.734, 26.796], [85.721, 26.821], [85.679, 26.844], [85.642, 26.853], [85.624, 26.874], [85.607, 26.857], [85.566, 26.841], [85.543, 26.838], [85.52, 26.815], [85.498, 26.812], [85.496, 26.797], [85.452, 26.781], [85.433, 26.79], [85.408, 26.791], [85.375, 26.761], [85.355, 26.76], [85.335, 26.742], [85.307, 26.752], [85.269, 26.755], [85.234, 26.763], [85.212, 26.758], [85.197, 26.77], [85.193, 26.791], [85.177, 26.81], [85.191, 26.831], [85.19, 26.87], [85.168, 26.869], [85.111, 26.873], [85.09, 26.869], [85.088, 26.857], [85.057, 26.849], [85.029, 26.861], [85.029, 26.875], [85.053, 26.889], [85.004, 26.895], [85, 26.912], [84.968, 26.916], [84.978, 26.94], [84.961, 26.961], [84.865, 26.984], [84.855, 27.008], [84.817, 27.02], [84.794, 26.996], [84.783, 27.014], [84.757, 27.003], [84.701, 27.027], [84.643, 27.047], [84.646, 27.076], [84.666, 27.088], [84.677, 27.115], [84.683, 27.158], [84.675, 27.171], [84.691, 27.215], [84.69, 27.223], [84.653, 27.289], [84.62, 27.339], [84.608, 27.336], [84.565, 27.348], [84.504, 27.355], [84.472, 27.356], [84.424, 27.372], [84.392, 27.368], [84.373, 27.377], [84.348, 27.374], [84.295, 27.385], [84.276, 27.401], [84.272, 27.429], [84.254, 27.452], [84.231, 27.456], [84.209, 27.443], [84.206, 27.47], [84.172, 27.476], [84.149, 27.486], [84.13, 27.512], [84.109, 27.522], [84.096, 27.49], [84.071, 27.482], [84.052, 27.443], [84.026, 27.439], [83.963, 27.444], [83.931, 27.45], [83.882, 27.435], [83.867, 27.425], [83.873, 27.392], [83.905, 27.39], [83.888, 27.358], [83.863, 27.347], [83.83, 27.37], [83.615, 27.47], [83.389, 27.48], [83.402, 27.457], [83.384, 27.443], [83.406, 27.419], [83.403, 27.401], [83.385, 27.39], [83.353, 27.34], [83.337, 27.333], [83.292, 27.337], [83.266, 27.366], [83.272, 27.384], [83.211, 27.424], [83.188, 27.455], [83.165, 27.458], [83.034, 27.449], [82.954, 27.468], [82.93, 27.501], [82.87, 27.499], [82.833, 27.502], [82.802, 27.497], [82.74, 27.502], [82.746, 27.521], [82.738, 27.547], [82.754, 27.586], [82.735, 27.61], [82.731, 27.652], [82.715, 27.662], [82.718, 27.688], [82.705, 27.717], [82.667, 27.716], [82.619, 27.702], [82.605, 27.706], [82.541, 27.686], [82.516, 27.691], [82.473, 27.677], [82.449, 27.679], [82.402, 27.703], [82.367, 27.743], [82.304, 27.773], [82.253, 27.81], [82.231, 27.821], [82.208, 27.843], [82.154, 27.866], [82.123, 27.865], [82.092, 27.895], [82.071, 27.923], [81.968, 27.929], [81.925, 27.876], [81.926, 27.86], [81.901, 27.854], [81.821, 27.904], [81.805, 27.904], [81.75, 27.948], [81.698, 27.988], [81.644, 27.994], [81.547, 28.049], [81.479, 28.083], [81.484, 28.118], [81.45, 28.141], [81.447, 28.161], [81.415, 28.174], [81.375, 28.177], [81.371, 28.143], [81.335, 28.14], [81.318, 28.134], [81.321, 28.197], [81.286, 28.229], [81.233, 28.289], [81.235, 28.325], [81.214, 28.358], [81.203, 28.362], [81.086, 28.383], [81.041, 28.412], [81.034, 28.428], [81, 28.454], [80.989, 28.442], [80.952, 28.448], [80.951, 28.455], [80.909, 28.462], [80.902, 28.486], [80.909, 28.498], [80.876, 28.51], [80.855, 28.497], [80.816, 28.521], [80.785, 28.529], [80.79, 28.543], [80.77, 28.55], [80.768, 28.566], [80.739, 28.566], [80.69, 28.587], [80.687, 28.604], [80.668, 28.642], [80.651, 28.634], [80.612, 28.639], [80.606, 28.652], [80.58, 28.661], [80.591, 28.68], [80.54, 28.691], [80.504, 28.665], [80.522, 28.577], [80.523, 28.553], [80.484, 28.582], [80.471, 28.585], [80.461, 28.622], [80.438, 28.635], [80.416, 28.639], [80.386, 28.63], [80.362, 28.635], [80.354, 28.65], [80.326, 28.67], [80.317, 28.7], [80.291, 28.712], [80.278, 28.71], [80.256, 28.729], [80.265, 28.744], [80.252, 28.757], [80.216, 28.755], [80.171, 28.782], [80.118, 28.829], [80.075, 28.824], [80.071, 28.83], [80.065, 28.837], [80.059, 28.917], [80.077, 28.945], [80.1, 28.987], [80.118, 28.982], [80.127, 29.006], [80.129, 29.061], [80.145, 29.103], [80.184, 29.137], [80.21, 29.122], [80.232, 29.117], [80.256, 29.139], [80.274, 29.145], [80.259, 29.166], [80.263, 29.206], [80.286, 29.195], [80.298, 29.206], [80.291, 29.231], [80.301, 29.242], [80.305, 29.285], [80.319, 29.302], [80.309, 29.323], [80.296, 29.325], [80.272, 29.364], [80.275, 29.394], [80.242, 29.412], [80.244, 29.441], [80.245, 29.446], [80.304, 29.455], [80.288, 29.473], [80.3, 29.491], [80.341, 29.51], [80.358, 29.533], [80.342, 29.543], [80.349, 29.555], [80.379, 29.561], [80.408, 29.595], [80.406, 29.613], [80.421, 29.63], [80.417, 29.651], [80.385, 29.674], [80.368, 29.751], [80.386, 29.75], [80.407, 29.784], [80.407, 29.795], [80.464, 29.802], [80.493, 29.796], [80.507, 29.823], [80.522, 29.827], [80.539, 29.847], [80.553, 29.85], [80.557, 29.871], [80.573, 29.895], [80.57, 29.909], [80.582, 29.937], [80.596, 29.953], [80.622, 29.964], [80.649, 29.956], [80.674, 29.957], [80.72, 30], [80.738, 30], [80.758, 30.028], [80.761, 30.05], [80.78, 30.057], [80.806, 30.09], [80.823, 30.1], [80.845, 30.102], [80.845, 30.116], [80.878, 30.129], [80.872, 30.161], [80.884, 30.195], [80.91, 30.223], [80.927, 30.217], [80.923, 30.195], [80.94, 30.18], [80.973, 30.189], [81.002, 30.187], [81.029, 30.195], [81.045, 30.211], [81.029, 30.22], [81.023, 30.246], [80.983, 30.269], [80.953, 30.267], [80.915, 30.285], [80.909, 30.3], [80.874, 30.299], [80.864, 30.31], [80.834, 30.31], [80.786, 30.342], [80.787, 30.35], [80.751, 30.376], [80.735, 30.397], [80.709, 30.413], [80.69, 30.41], [80.659, 30.439], [80.638, 30.447], [80.607, 30.467], [80.566, 30.46], [80.542, 30.445], [80.499, 30.484], [80.468, 30.487], [80.419, 30.513], [80.412, 30.522], [80.388, 30.514], [80.367, 30.524], [80.348, 30.517], [80.325, 30.54], [80.317, 30.561], [80.285, 30.566], [80.256, 30.562], [80.238, 30.577], [80.211, 30.585], [80.214, 30.623], [80.222, 30.639], [80.195, 30.663], [80.2, 30.682], [80.235, 30.687], [80.235, 30.705], [80.252, 30.717], [80.251, 30.74], [80.241, 30.759], [80.219, 30.749], [80.202, 30.761], [80.182, 30.806], [80.163, 30.808], [80.156, 30.788], [80.115, 30.777], [80.102, 30.79], [80.09, 30.795], [80.076, 30.821], [80.057, 30.838], [80.032, 30.845], [80.011, 30.871], [79.953, 30.88], [79.932, 30.878], [79.912, 30.91], [79.891, 30.914], [79.877, 30.963], [79.852, 30.97], [79.818, 30.968], [79.794, 30.983], [79.778, 30.983], [79.755, 31.003], [79.738, 30.978], [79.702, 30.968], [79.677, 30.979], [79.667, 30.964], [79.603, 30.937], [79.556, 30.954], [79.527, 30.986], [79.511, 31.011], [79.508, 31.029], [79.474, 31.031], [79.429, 31.02], [79.415, 31.069], [79.42, 31.081], [79.417, 31.103], [79.393, 31.114], [79.378, 31.11], [79.331, 31.129], [79.312, 31.15], [79.303, 31.216], [79.285, 31.236], [79.271, 31.234], [79.225, 31.259], [79.245, 31.271], [79.249, 31.288], [79.219, 31.309], [79.235, 31.33], [79.215, 31.346], [79.169, 31.357], [79.176, 31.38], [79.171, 31.393], [79.147, 31.41], [79.141, 31.43], [79.118, 31.433], [79.098, 31.448], [79.069, 31.434], [79.018, 31.42], [79.018, 31.385], [79.01, 31.375], [79.018, 31.344], [78.986, 31.336], [78.965, 31.322], [78.923, 31.253], [78.895, 31.265], [78.883, 31.296], [78.856, 31.322], [78.856, 31.349], [78.843, 31.376], [78.793, 31.396], [78.809, 31.413], [78.812, 31.448], [78.777, 31.47], [78.765, 31.485], [78.733, 31.48], [78.723, 31.516], [78.738, 31.536], [78.766, 31.544], [78.785, 31.561], [78.814, 31.571], [78.848, 31.61], [78.841, 31.625], [78.812, 31.644], [78.797, 31.668], [78.796, 31.685], [78.767, 31.68], [78.751, 31.687], [78.738, 31.725], [78.728, 31.736], [78.741, 31.759], [78.713, 31.774], [78.708, 31.802], [78.718, 31.821], [78.737, 31.83], [78.741, 31.877], [78.75, 31.908], [78.77, 31.935], [78.788, 31.995], [78.754, 31.999], [78.713, 32.035], [78.699, 32.059], [78.674, 32.079]], [[72.346, 21.803], [72.364, 21.821], [72.37, 21.867], [72.387, 21.906], [72.403, 21.93], [72.408, 21.956], [72.398, 21.989], [72.38, 22.002], [72.337, 21.996], [72.31, 21.979], [72.296, 21.953], [72.294, 21.915], [72.318, 21.82], [72.33, 21.804], [72.346, 21.803]], [[71.605, 20.895], [71.627, 20.916], [71.623, 20.937], [71.596, 20.932], [71.574, 20.906], [71.587, 20.893], [71.605, 20.895]], [[71.56, 20.851], [71.573, 20.86], [71.57, 20.876], [71.555, 20.88], [71.542, 20.869], [71.56, 20.851]], [[70.416, 22.989], [70.462, 23.044], [70.433, 23.048], [70.416, 23.028], [70.41, 23.003], [70.416, 22.989]], [[68.415, 23.5], [68.424, 23.511], [68.421, 23.539], [68.408, 23.547], [68.39, 23.531], [68.396, 23.51], [68.415, 23.5]], [[68.563, 23.319], [68.567, 23.343], [68.541, 23.337], [68.545, 23.318], [68.563, 23.319]], [[72.745, 21.646], [72.748, 21.658], [72.722, 21.666], [72.723, 21.644], [72.745, 21.646]], [[69.293, 22.481], [69.268, 22.451], [69.263, 22.427], [69.282, 22.414], [69.3, 22.428], [69.304, 22.444], [69.322, 22.45], [69.325, 22.47], [69.293, 22.481]], [[69.631, 22.458], [69.592, 22.443], [69.593, 22.428], [69.636, 22.406], [69.653, 22.431], [69.631, 22.458]], [[69.211, 22.477], [69.211, 22.465], [69.235, 22.449], [69.25, 22.467], [69.238, 22.48], [69.211, 22.477]], [[69.366, 22.506], [69.35, 22.526], [69.324, 22.529], [69.336, 22.508], [69.366, 22.506]], [[70.008, 22.555], [70.028, 22.569], [70.029, 22.583], [70.009, 22.595], [69.965, 22.577], [69.956, 22.564], [69.966, 22.546], [70.008, 22.555]], [[69.908, 22.55], [69.897, 22.53], [69.915, 22.512], [69.943, 22.526], [69.93, 22.546], [69.908, 22.55]], [[93.029, 13.575], [93.013, 13.567], [92.991, 13.567], [92.983, 13.549], [92.992, 13.536], [92.975, 13.527], [92.966, 13.544], [92.947, 13.537], [92.93, 13.54], [92.914, 13.529], [92.931, 13.502], [92.903, 13.495], [92.895, 13.475], [92.879, 13.476], [92.87, 13.426], [92.87, 13.405], [92.845, 13.409], [92.843, 13.396], [92.854, 13.379], [92.834, 13.375], [92.834, 13.356], [92.821, 13.31], [92.83, 13.304], [92.821, 13.278], [92.852, 13.253], [92.825, 13.238], [92.816, 13.201], [92.836, 13.175], [92.814, 13.168], [92.824, 13.134], [92.793, 13.06], [92.788, 13.019], [92.806, 13.007], [92.795, 12.987], [92.792, 12.953], [92.802, 12.935], [92.795, 12.914], [92.803, 12.897], [92.791, 12.889], [92.795, 12.87], [92.778, 12.864], [92.734, 12.824], [92.724, 12.828], [92.721, 12.789], [92.73, 12.745], [92.739, 12.738], [92.741, 12.7], [92.73, 12.698], [92.744, 12.668], [92.719, 12.638], [92.702, 12.6], [92.709, 12.576], [92.694, 12.515], [92.709, 12.493], [92.701, 12.469], [92.707, 12.452], [92.699, 12.426], [92.701, 12.333], [92.72, 12.304], [92.755, 12.296], [92.772, 12.317], [92.815, 12.313], [92.832, 12.302], [92.848, 12.308], [92.857, 12.315], [92.881, 12.319], [92.873, 12.353], [92.838, 12.397], [92.829, 12.42], [92.865, 12.426], [92.915, 12.413], [92.931, 12.449], [92.949, 12.465], [92.931, 12.476], [92.949, 12.499], [92.968, 12.497], [92.967, 12.515], [92.975, 12.544], [92.961, 12.577], [92.956, 12.602], [92.959, 12.647], [92.965, 12.676], [92.969, 12.74], [92.934, 12.775], [92.954, 12.805], [92.929, 12.858], [92.927, 12.886], [92.91, 12.897], [92.886, 12.894], [92.86, 12.903], [92.874, 12.917], [92.874, 12.965], [92.888, 12.982], [92.907, 12.986], [92.908, 12.951], [92.938, 12.97], [92.936, 12.982], [92.908, 13], [92.903, 13.02], [92.916, 13.055], [92.935, 13.066], [92.934, 13.042], [92.964, 13.017], [92.985, 13.026], [93.02, 13.05], [93.035, 13.082], [93.03, 13.127], [93.037, 13.14], [93.032, 13.179], [93.056, 13.233], [93.057, 13.256], [93.016, 13.292], [93.002, 13.315], [92.964, 13.323], [92.953, 13.339], [92.966, 13.361], [92.99, 13.343], [93.004, 13.354], [93.04, 13.351], [93.037, 13.374], [93.052, 13.392], [93.057, 13.411], [93.036, 13.418], [93.033, 13.433], [93.036, 13.47], [93.044, 13.505], [93.045, 13.529], [93.029, 13.575]], [[92.826, 12.304], [92.809, 12.313], [92.792, 12.304], [92.764, 12.264], [92.75, 12.274], [92.742, 12.245], [92.751, 12.233], [92.771, 12.231], [92.764, 12.213], [92.77, 12.201], [92.768, 12.189], [92.739, 12.098], [92.742, 12.078], [92.759, 12.071], [92.786, 12.08], [92.787, 12.103], [92.811, 12.118], [92.801, 12.131], [92.821, 12.151], [92.822, 12.166], [92.848, 12.162], [92.855, 12.19], [92.871, 12.197], [92.872, 12.226], [92.859, 12.245], [92.877, 12.251], [92.883, 12.263], [92.871, 12.299], [92.852, 12.302], [92.839, 12.304], [92.83, 12.301], [92.826, 12.304]], [[92.695, 12.992], [92.684, 12.988], [92.669, 12.961], [92.677, 12.95], [92.665, 12.882], [92.648, 12.862], [92.666, 12.807], [92.688, 12.809], [92.689, 12.835], [92.72, 12.874], [92.722, 12.945], [92.72, 12.979], [92.695, 12.992]], [[92.731, 12.242], [92.722, 12.229], [92.722, 12.194], [92.734, 12.185], [92.764, 12.182], [92.768, 12.201], [92.763, 12.209], [92.762, 12.229], [92.752, 12.228], [92.731, 12.242]], [[93.058, 13.377], [93.039, 13.361], [93.046, 13.351], [93.04, 13.323], [93.078, 13.34], [93.062, 13.361], [93.058, 13.377]], [[93.015, 13.676], [92.982, 13.667], [92.971, 13.653], [92.986, 13.639], [93.002, 13.645], [93.032, 13.634], [93.015, 13.676]], [[92.956, 12.416], [92.934, 12.419], [92.919, 12.365], [92.933, 12.361], [92.942, 12.383], [92.944, 12.404], [92.956, 12.416]], [[92.71, 12.829], [92.695, 12.798], [92.712, 12.777], [92.71, 12.829]], [[92.94, 12.281], [92.908, 12.275], [92.923, 12.262], [92.94, 12.281]], [[92.901, 12.255], [92.871, 12.244], [92.892, 12.234], [92.913, 12.234], [92.901, 12.255]], [[92.684, 12.556], [92.661, 12.533], [92.671, 12.512], [92.683, 12.518], [92.684, 12.556]], [[93.871, 12.268], [93.878, 12.284], [93.863, 12.293], [93.846, 12.274], [93.871, 12.268]], [[94.274, 13.462], [94.263, 13.463], [94.25, 13.44], [94.274, 13.44], [94.274, 13.462]], [[92.923, 13.029], [92.915, 13.014], [92.937, 12.996], [92.943, 13.019], [92.923, 13.029]], [[92.845, 13.445], [92.821, 13.435], [92.832, 13.418], [92.847, 13.43], [92.845, 13.445]], [[92.722, 12.866], [92.708, 12.838], [92.718, 12.835], [92.73, 12.861], [92.722, 12.866]], [[92.72, 13.099], [92.696, 13.096], [92.704, 13.08], [92.72, 13.099]], [[92.697, 12.239], [92.674, 12.218], [92.657, 12.182], [92.646, 12.177], [92.642, 12.156], [92.624, 12.102], [92.62, 12.072], [92.626, 12.062], [92.623, 12.027], [92.614, 12.009], [92.611, 11.873], [92.586, 11.888], [92.58, 11.925], [92.57, 11.93], [92.543, 11.924], [92.527, 11.895], [92.525, 11.871], [92.514, 11.847], [92.525, 11.827], [92.542, 11.835], [92.56, 11.77], [92.553, 11.763], [92.554, 11.72], [92.588, 11.717], [92.6, 11.691], [92.591, 11.669], [92.612, 11.636], [92.645, 11.625], [92.636, 11.615], [92.609, 11.621], [92.606, 11.608], [92.621, 11.576], [92.635, 11.581], [92.643, 11.561], [92.647, 11.523], [92.671, 11.504], [92.677, 11.512], [92.7, 11.504], [92.712, 11.488], [92.727, 11.517], [92.724, 11.532], [92.735, 11.553], [92.741, 11.593], [92.753, 11.61], [92.751, 11.636], [92.756, 11.665], [92.749, 11.676], [92.727, 11.68], [92.702, 11.655], [92.698, 11.616], [92.674, 11.625], [92.664, 11.653], [92.683, 11.651], [92.699, 11.666], [92.704, 11.683], [92.683, 11.696], [92.702, 11.712], [92.745, 11.691], [92.742, 11.709], [92.755, 11.718], [92.77, 11.786], [92.776, 11.833], [92.786, 11.865], [92.779, 11.893], [92.788, 11.919], [92.771, 11.94], [92.747, 11.932], [92.732, 11.898], [92.715, 11.951], [92.737, 11.977], [92.756, 11.988], [92.753, 12.002], [92.734, 12.024], [92.748, 12.038], [92.758, 12.023], [92.775, 12.03], [92.758, 12.065], [92.742, 12.074], [92.735, 12.103], [92.755, 12.152], [92.757, 12.177], [92.737, 12.182], [92.707, 12.171], [92.71, 12.209], [92.697, 12.239]], [[92.519, 10.9], [92.497, 10.896], [92.48, 10.872], [92.462, 10.864], [92.455, 10.838], [92.427, 10.816], [92.417, 10.794], [92.405, 10.784], [92.374, 10.782], [92.381, 10.762], [92.378, 10.705], [92.383, 10.675], [92.402, 10.657], [92.42, 10.614], [92.41, 10.583], [92.4, 10.574], [92.381, 10.538], [92.404, 10.531], [92.419, 10.547], [92.433, 10.548], [92.463, 10.535], [92.479, 10.517], [92.5, 10.508], [92.531, 10.516], [92.546, 10.553], [92.568, 10.576], [92.562, 10.588], [92.544, 10.593], [92.54, 10.613], [92.554, 10.639], [92.582, 10.657], [92.576, 10.669], [92.598, 10.677], [92.598, 10.706], [92.59, 10.718], [92.583, 10.76], [92.588, 10.787], [92.562, 10.813], [92.556, 10.845], [92.56, 10.862], [92.519, 10.9]], [[92.637, 11.515], [92.621, 11.497], [92.612, 11.459], [92.625, 11.443], [92.624, 11.408], [92.614, 11.4], [92.587, 11.4], [92.592, 11.385], [92.581, 11.368], [92.599, 11.347], [92.665, 11.357], [92.69, 11.37], [92.691, 11.385], [92.663, 11.395], [92.651, 11.41], [92.672, 11.416], [92.685, 11.433], [92.677, 11.471], [92.648, 11.496], [92.637, 11.515]], [[92.97, 12.03], [92.952, 12.015], [92.931, 12.005], [92.934, 11.985], [92.96, 11.981], [92.975, 11.948], [93.006, 11.93], [93.026, 11.889], [93.047, 11.886], [93.054, 11.904], [93.037, 11.948], [93.007, 12.001], [93.009, 12.02], [92.983, 12.042], [92.97, 12.03]], [[93.083, 12.197], [93.067, 12.211], [93.053, 12.185], [93.038, 12.137], [93.072, 12.086], [93.092, 12.104], [93.089, 12.132], [93.094, 12.147], [93.084, 12.156], [93.09, 12.176], [93.083, 12.197]], [[92.216, 11.594], [92.208, 11.55], [92.215, 11.53], [92.251, 11.526], [92.261, 11.518], [92.275, 11.536], [92.27, 11.548], [92.27, 11.585], [92.216, 11.594]], [[93.028, 12.143], [93.02, 12.156], [93.002, 12.133], [93.009, 12.102], [93.006, 12.082], [93.034, 12.061], [93.053, 12.061], [93.049, 12.083], [93.033, 12.1], [93.035, 12.126], [93.028, 12.143]], [[92.991, 12.108], [92.962, 12.097], [92.964, 12.069], [92.991, 12.045], [92.999, 12.049], [93, 12.086], [93.005, 12.103], [92.991, 12.108]], [[92.962, 12.151], [92.964, 12.122], [92.981, 12.112], [92.998, 12.115], [92.993, 12.141], [92.962, 12.151]], [[93.078, 12.261], [93.064, 12.229], [93.083, 12.223], [93.101, 12.232], [93.078, 12.261]], [[93.034, 11.836], [93.05, 11.813], [93.071, 11.835], [93.063, 11.844], [93.034, 11.836]], [[92.538, 11.605], [92.532, 11.59], [92.536, 11.565], [92.549, 11.561], [92.565, 11.574], [92.562, 11.585], [92.538, 11.605]], [[93.844, 7.222], [93.839, 7.235], [93.816, 7.235], [93.811, 7.219], [93.764, 7.198], [93.755, 7.211], [93.739, 7.19], [93.686, 7.189], [93.677, 7.179], [93.68, 7.14], [93.66, 7.113], [93.66, 7.094], [93.672, 7.081], [93.667, 7.045], [93.675, 7.02], [93.692, 7.018], [93.707, 7.026], [93.709, 7], [93.732, 6.988], [93.754, 6.956], [93.749, 6.924], [93.763, 6.921], [93.781, 6.881], [93.778, 6.866], [93.796, 6.853], [93.789, 6.831], [93.815, 6.83], [93.821, 6.815], [93.812, 6.762], [93.835, 6.759], [93.848, 6.791], [93.848, 6.814], [93.865, 6.82], [93.885, 6.796], [93.896, 6.806], [93.91, 6.835], [93.895, 6.841], [93.892, 6.865], [93.901, 6.874], [93.896, 6.903], [93.916, 6.945], [93.936, 6.963], [93.927, 6.987], [93.914, 7.001], [93.927, 7.012], [93.902, 7.076], [93.888, 7.084], [93.884, 7.13], [93.888, 7.151], [93.881, 7.169], [93.883, 7.188], [93.868, 7.217], [93.844, 7.222]], [[93.402, 8.009], [93.375, 8.027], [93.36, 8.009], [93.346, 8.017], [93.331, 8.01], [93.324, 7.978], [93.311, 7.954], [93.325, 7.927], [93.346, 7.932], [93.347, 7.896], [93.378, 7.883], [93.398, 7.903], [93.427, 7.907], [93.444, 7.897], [93.462, 7.873], [93.474, 7.893], [93.462, 7.935], [93.436, 7.957], [93.417, 7.957], [93.405, 7.973], [93.402, 8.009]], [[93.712, 7.443], [93.708, 7.394], [93.662, 7.379], [93.651, 7.368], [93.633, 7.37], [93.639, 7.33], [93.626, 7.309], [93.635, 7.287], [93.629, 7.269], [93.648, 7.244], [93.668, 7.26], [93.678, 7.285], [93.706, 7.304], [93.725, 7.31], [93.754, 7.376], [93.721, 7.402], [93.72, 7.429], [93.712, 7.443]], [[93.521, 8.233], [93.494, 8.221], [93.495, 8.199], [93.457, 8.174], [93.459, 8.124], [93.468, 8.103], [93.483, 8.085], [93.491, 8.063], [93.524, 8.084], [93.527, 8.054], [93.508, 8.037], [93.486, 8.044], [93.486, 8.015], [93.506, 7.997], [93.506, 8.029], [93.548, 8.05], [93.551, 8.075], [93.526, 8.107], [93.522, 8.122], [93.501, 8.147], [93.512, 8.171], [93.537, 8.184], [93.545, 8.216], [93.521, 8.233]], [[92.78, 9.252], [92.772, 9.22], [92.764, 9.214], [92.724, 9.218], [92.72, 9.208], [92.719, 9.153], [92.733, 9.124], [92.769, 9.128], [92.783, 9.119], [92.802, 9.12], [92.829, 9.14], [92.831, 9.163], [92.818, 9.214], [92.78, 9.252]], [[93.128, 8.354], [93.107, 8.349], [93.094, 8.336], [93.086, 8.304], [93.087, 8.271], [93.121, 8.224], [93.163, 8.202], [93.2, 8.196], [93.205, 8.216], [93.194, 8.225], [93.154, 8.243], [93.135, 8.261], [93.125, 8.281], [93.131, 8.312], [93.142, 8.346], [93.128, 8.354]], [[93.547, 8.026], [93.528, 8.019], [93.532, 8.006], [93.508, 7.984], [93.554, 7.949], [93.573, 7.931], [93.581, 7.939], [93.58, 7.996], [93.561, 8.023], [93.547, 8.026]], [[93.579, 8.123], [93.563, 8.12], [93.572, 8.095], [93.588, 8.075], [93.588, 8.11], [93.579, 8.123]], [[93.233, 8.264], [93.22, 8.248], [93.239, 8.221], [93.249, 8.241], [93.233, 8.264]], [[72.1, 11.215], [72.06, 11.185], [72.04, 11.175], [71.992, 11.176], [71.991, 11.167], [72.011, 11.142], [72.025, 11.112], [72.041, 11.106], [72.068, 11.117], [72.093, 11.153], [72.1, 11.215]], [[71.902, 12.288], [71.913, 12.307], [71.923, 12.348], [71.919, 12.386], [71.899, 12.399], [71.885, 12.393], [71.886, 12.344], [71.893, 12.319], [71.893, 12.295], [71.902, 12.288]], [[71.795, 11.871], [71.764, 11.869], [71.775, 11.845], [71.787, 11.834], [71.813, 11.833], [71.836, 11.823], [71.846, 11.83], [71.831, 11.865], [71.819, 11.852], [71.795, 11.871]], [[73.646, 10.057], [73.654, 10.112], [73.665, 10.14], [73.66, 10.157], [73.64, 10.135], [73.621, 10.103], [73.624, 10.075], [73.646, 10.057]], [[73.543, 9.987], [73.553, 10.014], [73.53, 10.023], [73.52, 10.013], [73.522, 9.992], [73.543, 9.987]], [[86.95, 20.774], [86.893, 20.787], [86.885, 20.773], [86.95, 20.774]], [[79.325, 9.293], [79.335, 9.313], [79.311, 9.328], [79.278, 9.31], [79.268, 9.294], [79.221, 9.292], [79.205, 9.274], [79.225, 9.26], [79.258, 9.258], [79.291, 9.249], [79.344, 9.223], [79.412, 9.18], [79.41, 9.191], [79.338, 9.249], [79.319, 9.272], [79.325, 9.293]], [[79.156, 9.221], [79.113, 9.221], [79.097, 9.208], [79.058, 9.204], [79.082, 9.189], [79.108, 9.204], [79.14, 9.199], [79.156, 9.221]]]}}]}